[
    {
        "id": "1001",
        "name_en": "Khet Phra Nakhon",
        "name_th": "พระนคร",
        "province_id": "10"
    },
    {
        "id": "1002",
        "name_en": "Khet Dusit",
        "name_th": "ดุสิต",
        "province_id": "10"
    },
    {
        "id": "1003",
        "name_en": "Khet Nong Chok",
        "name_th": "หนองจอก",
        "province_id": "10"
    },
    {
        "id": "1004",
        "name_en": "Khet Bang Rak",
        "name_th": "บางรัก",
        "province_id": "10"
    },
    {
        "id": "1005",
        "name_en": "Khet Bang Khen",
        "name_th": "บางเขน",
        "province_id": "10"
    },
    {
        "id": "1006",
        "name_en": "Khet Bang Kapi",
        "name_th": "บางกะปิ",
        "province_id": "10"
    },
    {
        "id": "1007",
        "name_en": "Khet Pathum Wan",
        "name_th": "ปทุมวัน",
        "province_id": "10"
    },
    {
        "id": "1008",
        "name_en": "Khet Pom Prap Sattru Phai",
        "name_th": "ป้อมปราบศัตรูพ่าย",
        "province_id": "10"
    },
    {
        "id": "1009",
        "name_en": "Khet Phra Khanong",
        "name_th": "พระโขนง",
        "province_id": "10"
    },
    {
        "id": "1010",
        "name_en": "Khet Min Buri",
        "name_th": "มีนบุรี",
        "province_id": "10"
    },
    {
        "id": "1011",
        "name_en": "Khet Lat Krabang",
        "name_th": "ลาดกระบัง",
        "province_id": "10"
    },
    {
        "id": "1012",
        "name_en": "Khet Yan Nawa",
        "name_th": "ยานนาวา",
        "province_id": "10"
    },
    {
        "id": "1013",
        "name_en": "Khet Samphanthawong",
        "name_th": "สัมพันธวงศ์",
        "province_id": "10"
    },
    {
        "id": "1014",
        "name_en": "Khet Phaya Thai",
        "name_th": "พญาไท",
        "province_id": "10"
    },
    {
        "id": "1015",
        "name_en": "Khet Thon Buri",
        "name_th": "ธนบุรี",
        "province_id": "10"
    },
    {
        "id": "1016",
        "name_en": "Khet Bangkok Yai",
        "name_th": "บางกอกใหญ่",
        "province_id": "10"
    },
    {
        "id": "1017",
        "name_en": "Khet Huai Khwang",
        "name_th": "ห้วยขวาง",
        "province_id": "10"
    },
    {
        "id": "1018",
        "name_en": "Khet Khlong San",
        "name_th": "คลองสาน",
        "province_id": "10"
    },
    {
        "id": "1019",
        "name_en": "Khet Taling Chan",
        "name_th": "ตลิ่งชัน",
        "province_id": "10"
    },
    {
        "id": "1020",
        "name_en": "Khet Bangkok Noi",
        "name_th": "บางกอกน้อย",
        "province_id": "10"
    },
    {
        "id": "1021",
        "name_en": "Khet Bang Khun Thian",
        "name_th": "บางขุนเทียน",
        "province_id": "10"
    },
    {
        "id": "1022",
        "name_en": "Khet Phasi Charoen",
        "name_th": "ภาษีเจริญ",
        "province_id": "10"
    },
    {
        "id": "1023",
        "name_en": "Khet Nong Khaem",
        "name_th": "หนองแขม",
        "province_id": "10"
    },
    {
        "id": "1024",
        "name_en": "Khet Rat Burana",
        "name_th": "ราษฎร์บูรณะ",
        "province_id": "10"
    },
    {
        "id": "1025",
        "name_en": "Khet Bang Phlat",
        "name_th": "บางพลัด",
        "province_id": "10"
    },
    {
        "id": "1026",
        "name_en": "Khet Din Daeng",
        "name_th": "ดินแดง",
        "province_id": "10"
    },
    {
        "id": "1027",
        "name_en": "Khet Bueng Kum",
        "name_th": "บึงกุ่ม",
        "province_id": "10"
    },
    {
        "id": "1028",
        "name_en": "Khet Sathon",
        "name_th": "สาทร",
        "province_id": "10"
    },
    {
        "id": "1029",
        "name_en": "Khet Bang Sue",
        "name_th": "บางซื่อ",
        "province_id": "10"
    },
    {
        "id": "1030",
        "name_en": "Khet Chatuchak",
        "name_th": "จตุจักร",
        "province_id": "10"
    },
    {
        "id": "1031",
        "name_en": "Khet Bang Kho Laem",
        "name_th": "บางคอแหลม",
        "province_id": "10"
    },
    {
        "id": "1032",
        "name_en": "Khet Prawet",
        "name_th": "ประเวศ",
        "province_id": "10"
    },
    {
        "id": "1033",
        "name_en": "Khet Khlong Toei",
        "name_th": "คลองเตย",
        "province_id": "10"
    },
    {
        "id": "1034",
        "name_en": "Khet Suan Luang",
        "name_th": "สวนหลวง",
        "province_id": "10"
    },
    {
        "id": "1035",
        "name_en": "Khet Chom Thong",
        "name_th": "จอมทอง",
        "province_id": "10"
    },
    {
        "id": "1036",
        "name_en": "Khet Don Mueang",
        "name_th": "ดอนเมือง",
        "province_id": "10"
    },
    {
        "id": "1037",
        "name_en": "Khet Ratchathewi",
        "name_th": "ราชเทวี",
        "province_id": "10"
    },
    {
        "id": "1038",
        "name_en": "Khet Lat Phrao",
        "name_th": "ลาดพร้าว",
        "province_id": "10"
    },
    {
        "id": "1039",
        "name_en": "Khet Vadhana",
        "name_th": "วัฒนา",
        "province_id": "10"
    },
    {
        "id": "1040",
        "name_en": "Khet Bang Khae",
        "name_th": "บางแค",
        "province_id": "10"
    },
    {
        "id": "1041",
        "name_en": "Khet Lak Si",
        "name_th": "หลักสี่",
        "province_id": "10"
    },
    {
        "id": "1042",
        "name_en": "Khet Sai Mai",
        "name_th": "สายไหม",
        "province_id": "10"
    },
    {
        "id": "1043",
        "name_en": "Khet Khan Na Yao",
        "name_th": "คันนายาว",
        "province_id": "10"
    },
    {
        "id": "1044",
        "name_en": "Khet Saphan Sung",
        "name_th": "สะพานสูง",
        "province_id": "10"
    },
    {
        "id": "1045",
        "name_en": "Khet Wang Thonglang",
        "name_th": "วังทองหลาง",
        "province_id": "10"
    },
    {
        "id": "1046",
        "name_en": "Khet Khlong Sam Wa",
        "name_th": "คลองสามวา",
        "province_id": "10"
    },
    {
        "id": "1047",
        "name_en": "Khet Bang Na",
        "name_th": "บางนา",
        "province_id": "10"
    },
    {
        "id": "1048",
        "name_en": "Khet Thawi Watthana",
        "name_th": "ทวีวัฒนา",
        "province_id": "10"
    },
    {
        "id": "1049",
        "name_en": "Khet Thung Khru",
        "name_th": "ทุ่งครุ",
        "province_id": "10"
    },
    {
        "id": "1050",
        "name_en": "Khet Bang Bon",
        "name_th": "บางบอน",
        "province_id": "10"
    },
    {
        "id": "1101",
        "name_en": "Amphoe Mueang Samut Prakan",
        "name_th": "เมืองสมุทรปราการ",
        "province_id": "11"
    },
    {
        "id": "1102",
        "name_en": "Amphoe Bang Bo",
        "name_th": "บางบ่อ",
        "province_id": "11"
    },
    {
        "id": "1103",
        "name_en": "Amphoe Bang Phli",
        "name_th": "บางพลี",
        "province_id": "11"
    },
    {
        "id": "1104",
        "name_en": "Amphoe Phra Pradaeng",
        "name_th": "พระประแดง",
        "province_id": "11"
    },
    {
        "id": "1105",
        "name_en": "Amphoe Phra Samut Chedi",
        "name_th": "พระสมุทรเจดีย์",
        "province_id": "11"
    },
    {
        "id": "1106",
        "name_en": "Amphoe Bang Sao Thong",
        "name_th": "บางเสาธง",
        "province_id": "11"
    },
    {
        "id": "1201",
        "name_en": "Amphoe Mueang Nonthaburi",
        "name_th": "เมืองนนทบุรี",
        "province_id": "12"
    },
    {
        "id": "1202",
        "name_en": "Amphoe Bang Kruai",
        "name_th": "บางกรวย",
        "province_id": "12"
    },
    {
        "id": "1203",
        "name_en": "Amphoe Bang Yai",
        "name_th": "บางใหญ่",
        "province_id": "12"
    },
    {
        "id": "1204",
        "name_en": "Amphoe Bang Bua Thong",
        "name_th": "บางบัวทอง",
        "province_id": "12"
    },
    {
        "id": "1205",
        "name_en": "Amphoe Sai Noi",
        "name_th": "ไทรน้อย",
        "province_id": "12"
    },
    {
        "id": "1206",
        "name_en": "Amphoe Pak Kret",
        "name_th": "ปากเกร็ด",
        "province_id": "12"
    },
    {
        "id": "1301",
        "name_en": "Amphoe Mueang Pathum Thani",
        "name_th": "เมืองปทุมธานี",
        "province_id": "13"
    },
    {
        "id": "1302",
        "name_en": "Amphoe Khlong Luang",
        "name_th": "คลองหลวง",
        "province_id": "13"
    },
    {
        "id": "1303",
        "name_en": "Amphoe Thanyaburi",
        "name_th": "ธัญบุรี",
        "province_id": "13"
    },
    {
        "id": "1304",
        "name_en": "Amphoe Nong Suea",
        "name_th": "หนองเสือ",
        "province_id": "13"
    },
    {
        "id": "1305",
        "name_en": "Amphoe Lat Lum Kaeo",
        "name_th": "ลาดหลุมแก้ว",
        "province_id": "13"
    },
    {
        "id": "1306",
        "name_en": "Amphoe Lam Luk Ka",
        "name_th": "ลำลูกกา",
        "province_id": "13"
    },
    {
        "id": "1307",
        "name_en": "Amphoe Sam Khok",
        "name_th": "สามโคก",
        "province_id": "13"
    },
    {
        "id": "1401",
        "name_en": "Amphoe Phra Nakhon Si Ayutthaya",
        "name_th": "พระนครศรีอยุธยา",
        "province_id": "14"
    },
    {
        "id": "1402",
        "name_en": "Amphoe Tha Ruea",
        "name_th": "ท่าเรือ",
        "province_id": "14"
    },
    {
        "id": "1403",
        "name_en": "Amphoe Nakhon Luang",
        "name_th": "นครหลวง",
        "province_id": "14"
    },
    {
        "id": "1404",
        "name_en": "Amphoe Bang Sai",
        "name_th": "บางไทร",
        "province_id": "14"
    },
    {
        "id": "1405",
        "name_en": "Amphoe Bang Ban",
        "name_th": "บางบาล",
        "province_id": "14"
    },
    {
        "id": "1406",
        "name_en": "Amphoe Bang Pa-in",
        "name_th": "บางปะอิน",
        "province_id": "14"
    },
    {
        "id": "1407",
        "name_en": "Amphoe Bang Pahan",
        "name_th": "บางปะหัน",
        "province_id": "14"
    },
    {
        "id": "1408",
        "name_en": "Amphoe Phak Hai",
        "name_th": "ผักไห่",
        "province_id": "14"
    },
    {
        "id": "1409",
        "name_en": "Amphoe Phachi",
        "name_th": "ภาชี",
        "province_id": "14"
    },
    {
        "id": "1410",
        "name_en": "Amphoe Lat Bua Luang",
        "name_th": "ลาดบัวหลวง",
        "province_id": "14"
    },
    {
        "id": "1411",
        "name_en": "Amphoe Wang Noi",
        "name_th": "วังน้อย",
        "province_id": "14"
    },
    {
        "id": "1412",
        "name_en": "Amphoe Sena",
        "name_th": "เสนา",
        "province_id": "14"
    },
    {
        "id": "1413",
        "name_en": "Amphoe Bang Sai",
        "name_th": "บางซ้าย",
        "province_id": "14"
    },
    {
        "id": "1414",
        "name_en": "Amphoe Uthai",
        "name_th": "อุทัย",
        "province_id": "14"
    },
    {
        "id": "1415",
        "name_en": "Amphoe Maha Rat",
        "name_th": "มหาราช",
        "province_id": "14"
    },
    {
        "id": "1416",
        "name_en": "Amphoe Ban Phraek",
        "name_th": "บ้านแพรก",
        "province_id": "14"
    },
    {
        "id": "1501",
        "name_en": "Amphoe Mueang Ang Thong",
        "name_th": "เมืองอ่างทอง",
        "province_id": "15"
    },
    {
        "id": "1502",
        "name_en": "Amphoe Chaiyo",
        "name_th": "ไชโย",
        "province_id": "15"
    },
    {
        "id": "1503",
        "name_en": "Amphoe Pa Mok",
        "name_th": "ป่าโมก",
        "province_id": "15"
    },
    {
        "id": "1504",
        "name_en": "Amphoe Pho Thong",
        "name_th": "โพธิ์ทอง",
        "province_id": "15"
    },
    {
        "id": "1505",
        "name_en": "Amphoe Sawaeng Ha",
        "name_th": "แสวงหา",
        "province_id": "15"
    },
    {
        "id": "1506",
        "name_en": "Amphoe Wiset Chai Chan",
        "name_th": "วิเศษชัยชาญ",
        "province_id": "15"
    },
    {
        "id": "1507",
        "name_en": "Amphoe Samko",
        "name_th": "สามโก้",
        "province_id": "15"
    },
    {
        "id": "1601",
        "name_en": "Amphoe Mueang Lop Buri",
        "name_th": "เมืองลพบุรี",
        "province_id": "16"
    },
    {
        "id": "1602",
        "name_en": "Amphoe Phatthana Nikhom",
        "name_th": "พัฒนานิคม",
        "province_id": "16"
    },
    {
        "id": "1603",
        "name_en": "Amphoe Khok Samrong",
        "name_th": "โคกสำโรง",
        "province_id": "16"
    },
    {
        "id": "1604",
        "name_en": "Amphoe Chai Badan",
        "name_th": "ชัยบาดาล",
        "province_id": "16"
    },
    {
        "id": "1605",
        "name_en": "Amphoe Tha Wung",
        "name_th": "ท่าวุ้ง",
        "province_id": "16"
    },
    {
        "id": "1606",
        "name_en": "Amphoe Ban Mi",
        "name_th": "บ้านหมี่",
        "province_id": "16"
    },
    {
        "id": "1607",
        "name_en": "Amphoe Tha Luang",
        "name_th": "ท่าหลวง",
        "province_id": "16"
    },
    {
        "id": "1608",
        "name_en": "Amphoe Sa Bot",
        "name_th": "สระโบสถ์",
        "province_id": "16"
    },
    {
        "id": "1609",
        "name_en": "Amphoe Khok Charoen",
        "name_th": "โคกเจริญ",
        "province_id": "16"
    },
    {
        "id": "1610",
        "name_en": "Amphoe Lam Sonthi",
        "name_th": "ลำสนธิ",
        "province_id": "16"
    },
    {
        "id": "1611",
        "name_en": "Amphoe Nong Muang",
        "name_th": "หนองม่วง",
        "province_id": "16"
    },
    {
        "id": "1701",
        "name_en": "Amphoe Mueang Sing Buri",
        "name_th": "เมืองสิงห์บุรี",
        "province_id": "17"
    },
    {
        "id": "1702",
        "name_en": "Amphoe Bang Rachan",
        "name_th": "บางระจัน",
        "province_id": "17"
    },
    {
        "id": "1703",
        "name_en": "Amphoe Khai Bang Rachan",
        "name_th": "ค่ายบางระจัน",
        "province_id": "17"
    },
    {
        "id": "1704",
        "name_en": "Amphoe Phrom Buri",
        "name_th": "พรหมบุรี",
        "province_id": "17"
    },
    {
        "id": "1705",
        "name_en": "Amphoe Tha Chang",
        "name_th": "ท่าช้าง",
        "province_id": "17"
    },
    {
        "id": "1706",
        "name_en": "Amphoe In Buri",
        "name_th": "อินทร์บุรี",
        "province_id": "17"
    },
    {
        "id": "1801",
        "name_en": "Amphoe Mueang Chai Nat",
        "name_th": "เมืองชัยนาท",
        "province_id": "18"
    },
    {
        "id": "1802",
        "name_en": "Amphoe Manorom",
        "name_th": "มโนรมย์",
        "province_id": "18"
    },
    {
        "id": "1803",
        "name_en": "Amphoe Wat Sing",
        "name_th": "วัดสิงห์",
        "province_id": "18"
    },
    {
        "id": "1804",
        "name_en": "Amphoe Sapphaya",
        "name_th": "สรรพยา",
        "province_id": "18"
    },
    {
        "id": "1805",
        "name_en": "Amphoe Sankhaburi",
        "name_th": "สรรคบุรี",
        "province_id": "18"
    },
    {
        "id": "1806",
        "name_en": "Amphoe Hankha",
        "name_th": "หันคา",
        "province_id": "18"
    },
    {
        "id": "1807",
        "name_en": "Amphoe Nong Mamong",
        "name_th": "หนองมะโมง",
        "province_id": "18"
    },
    {
        "id": "1808",
        "name_en": "Amphoe Noen Kham",
        "name_th": "เนินขาม",
        "province_id": "18"
    },
    {
        "id": "1901",
        "name_en": "Amphoe Mueang Saraburi",
        "name_th": "เมืองสระบุรี",
        "province_id": "19"
    },
    {
        "id": "1902",
        "name_en": "Amphoe Kaeng Khoi",
        "name_th": "แก่งคอย",
        "province_id": "19"
    },
    {
        "id": "1903",
        "name_en": "Amphoe Nong Khae",
        "name_th": "หนองแค",
        "province_id": "19"
    },
    {
        "id": "1904",
        "name_en": "Amphoe Wihan Daeng",
        "name_th": "วิหารแดง",
        "province_id": "19"
    },
    {
        "id": "1905",
        "name_en": "Amphoe Nong Saeng",
        "name_th": "หนองแซง",
        "province_id": "19"
    },
    {
        "id": "1906",
        "name_en": "Amphoe Ban Mo",
        "name_th": "บ้านหมอ",
        "province_id": "19"
    },
    {
        "id": "1907",
        "name_en": "Amphoe Don Phut",
        "name_th": "ดอนพุด",
        "province_id": "19"
    },
    {
        "id": "1908",
        "name_en": "Amphoe Nong Don",
        "name_th": "หนองโดน",
        "province_id": "19"
    },
    {
        "id": "1909",
        "name_en": "Amphoe Phra Phutthabat",
        "name_th": "พระพุทธบาท",
        "province_id": "19"
    },
    {
        "id": "1910",
        "name_en": "Amphoe Sao Hai",
        "name_th": "เสาไห้",
        "province_id": "19"
    },
    {
        "id": "1911",
        "name_en": "Amphoe Muak Lek",
        "name_th": "มวกเหล็ก",
        "province_id": "19"
    },
    {
        "id": "1912",
        "name_en": "Amphoe Wang Muang",
        "name_th": "วังม่วง",
        "province_id": "19"
    },
    {
        "id": "1913",
        "name_en": "Amphoe Chaloem Phra Kiat",
        "name_th": "เฉลิมพระเกียรติ",
        "province_id": "19"
    },
    {
        "id": "2001",
        "name_en": "Amphoe Mueang Chon Buri",
        "name_th": "เมืองชลบุรี",
        "province_id": "20"
    },
    {
        "id": "2002",
        "name_en": "Amphoe Ban Bueng",
        "name_th": "บ้านบึง",
        "province_id": "20"
    },
    {
        "id": "2003",
        "name_en": "Amphoe Nong Yai",
        "name_th": "หนองใหญ่",
        "province_id": "20"
    },
    {
        "id": "2004",
        "name_en": "Amphoe Bang Lamung",
        "name_th": "บางละมุง",
        "province_id": "20"
    },
    {
        "id": "2005",
        "name_en": "Amphoe Phan Thong",
        "name_th": "พานทอง",
        "province_id": "20"
    },
    {
        "id": "2006",
        "name_en": "Amphoe Phanat Nikhom",
        "name_th": "พนัสนิคม",
        "province_id": "20"
    },
    {
        "id": "2007",
        "name_en": "Amphoe Si Racha",
        "name_th": "ศรีราชา",
        "province_id": "20"
    },
    {
        "id": "2008",
        "name_en": "Amphoe Ko Sichang",
        "name_th": "เกาะสีชัง",
        "province_id": "20"
    },
    {
        "id": "2009",
        "name_en": "Amphoe Sattahip",
        "name_th": "สัตหีบ",
        "province_id": "20"
    },
    {
        "id": "2010",
        "name_en": "Amphoe Bo Thong",
        "name_th": "บ่อทอง",
        "province_id": "20"
    },
    {
        "id": "2011",
        "name_en": "Amphoe Ko Chan",
        "name_th": "เกาะจันทร์",
        "province_id": "20"
    },
    {
        "id": "2101",
        "name_en": "Amphoe Mueang Rayong",
        "name_th": "เมืองระยอง",
        "province_id": "21"
    },
    {
        "id": "2102",
        "name_en": "Amphoe Ban Chang",
        "name_th": "บ้านฉาง",
        "province_id": "21"
    },
    {
        "id": "2103",
        "name_en": "Amphoe Klaeng",
        "name_th": "แกลง",
        "province_id": "21"
    },
    {
        "id": "2104",
        "name_en": "Amphoe Wang Chan",
        "name_th": "วังจันทร์",
        "province_id": "21"
    },
    {
        "id": "2105",
        "name_en": "Amphoe Ban Khai",
        "name_th": "บ้านค่าย",
        "province_id": "21"
    },
    {
        "id": "2106",
        "name_en": "Amphoe Pluak Daeng",
        "name_th": "ปลวกแดง",
        "province_id": "21"
    },
    {
        "id": "2107",
        "name_en": "Amphoe Khao Chamao",
        "name_th": "เขาชะเมา",
        "province_id": "21"
    },
    {
        "id": "2108",
        "name_en": "Amphoe Nikhom Phatthana",
        "name_th": "นิคมพัฒนา",
        "province_id": "21"
    },
    {
        "id": "2201",
        "name_en": "Amphoe Mueang Chanthaburi",
        "name_th": "เมืองจันทบุรี",
        "province_id": "22"
    },
    {
        "id": "2202",
        "name_en": "Amphoe Khlung",
        "name_th": "ขลุง",
        "province_id": "22"
    },
    {
        "id": "2203",
        "name_en": "Amphoe Tha Mai",
        "name_th": "ท่าใหม่",
        "province_id": "22"
    },
    {
        "id": "2204",
        "name_en": "Amphoe Pong Nam Ron",
        "name_th": "โป่งน้ำร้อน",
        "province_id": "22"
    },
    {
        "id": "2205",
        "name_en": "Amphoe Makham",
        "name_th": "มะขาม",
        "province_id": "22"
    },
    {
        "id": "2206",
        "name_en": "Amphoe Laem Sing",
        "name_th": "แหลมสิงห์",
        "province_id": "22"
    },
    {
        "id": "2207",
        "name_en": "Amphoe Soi Dao",
        "name_th": "สอยดาว",
        "province_id": "22"
    },
    {
        "id": "2208",
        "name_en": "Amphoe Kaeng Hang Maeo",
        "name_th": "แก่งหางแมว",
        "province_id": "22"
    },
    {
        "id": "2209",
        "name_en": "Amphoe Na Yai Am",
        "name_th": "นายายอาม",
        "province_id": "22"
    },
    {
        "id": "2210",
        "name_en": "Amphoe Khao Khitchakut",
        "name_th": "เขาคิชฌกูฏ",
        "province_id": "22"
    },
    {
        "id": "2301",
        "name_en": "Amphoe Mueang Trat",
        "name_th": "เมืองตราด",
        "province_id": "23"
    },
    {
        "id": "2302",
        "name_en": "Amphoe Khlong Yai",
        "name_th": "คลองใหญ่",
        "province_id": "23"
    },
    {
        "id": "2303",
        "name_en": "Amphoe Khao Saming",
        "name_th": "เขาสมิง",
        "province_id": "23"
    },
    {
        "id": "2304",
        "name_en": "Amphoe Bo Rai",
        "name_th": "บ่อไร่",
        "province_id": "23"
    },
    {
        "id": "2305",
        "name_en": "Amphoe Laem Ngop",
        "name_th": "แหลมงอบ",
        "province_id": "23"
    },
    {
        "id": "2306",
        "name_en": "Amphoe Ko Kut",
        "name_th": "เกาะกูด",
        "province_id": "23"
    },
    {
        "id": "2307",
        "name_en": "Amphoe Ko Chang",
        "name_th": "เกาะช้าง",
        "province_id": "23"
    },
    {
        "id": "2401",
        "name_en": "Amphoe Mueang Chachoengsao",
        "name_th": "เมืองฉะเชิงเทรา",
        "province_id": "24"
    },
    {
        "id": "2402",
        "name_en": "Amphoe Bang Khla",
        "name_th": "บางคล้า",
        "province_id": "24"
    },
    {
        "id": "2403",
        "name_en": "Amphoe Bang Nam Priao",
        "name_th": "บางน้ำเปรี้ยว",
        "province_id": "24"
    },
    {
        "id": "2404",
        "name_en": "Amphoe Bang Pakong",
        "name_th": "บางปะกง",
        "province_id": "24"
    },
    {
        "id": "2405",
        "name_en": "Amphoe Ban Pho",
        "name_th": "บ้านโพธิ์",
        "province_id": "24"
    },
    {
        "id": "2406",
        "name_en": "Amphoe Phanom Sarakham",
        "name_th": "พนมสารคาม",
        "province_id": "24"
    },
    {
        "id": "2407",
        "name_en": "Amphoe Ratchasan",
        "name_th": "ราชสาส์น",
        "province_id": "24"
    },
    {
        "id": "2408",
        "name_en": "Amphoe Sanam Chai Khet",
        "name_th": "สนามชัย",
        "province_id": "24"
    },
    {
        "id": "2409",
        "name_en": "Amphoe Plaeng Yao",
        "name_th": "แปลงยาว",
        "province_id": "24"
    },
    {
        "id": "2410",
        "name_en": "Amphoe Tha Takiap",
        "name_th": "ท่าตะเกียบ",
        "province_id": "24"
    },
    {
        "id": "2411",
        "name_en": "Amphoe Khlong Khuean",
        "name_th": "คลองเขื่อน",
        "province_id": "24"
    },
    {
        "id": "2501",
        "name_en": "Amphoe Mueang Prachin Buri",
        "name_th": "เมืองปราจีนบุรี",
        "province_id": "25"
    },
    {
        "id": "2502",
        "name_en": "Amphoe Kabin Buri",
        "name_th": "กบินทร์บุรี",
        "province_id": "25"
    },
    {
        "id": "2503",
        "name_en": "Amphoe Na Di",
        "name_th": "นาดี",
        "province_id": "25"
    },
    {
        "id": "2506",
        "name_en": "Amphoe Ban Sang",
        "name_th": "บ้านสร้าง",
        "province_id": "25"
    },
    {
        "id": "2507",
        "name_en": "Amphoe Prachantakham",
        "name_th": "ประจันตคาม",
        "province_id": "25"
    },
    {
        "id": "2508",
        "name_en": "Amphoe Si Maha Phot",
        "name_th": "ศรีมหาโพธิ",
        "province_id": "25"
    },
    {
        "id": "2509",
        "name_en": "Amphoe Si Mahosot",
        "name_th": "ศรีมโหสถ",
        "province_id": "25"
    },
    {
        "id": "2601",
        "name_en": "Amphoe Mueang Nakhon Nayok",
        "name_th": "เมืองนครนายก",
        "province_id": "26"
    },
    {
        "id": "2602",
        "name_en": "Amphoe Pak Phli",
        "name_th": "ปากพลี",
        "province_id": "26"
    },
    {
        "id": "2603",
        "name_en": "Amphoe Ban Na",
        "name_th": "บ้านนา",
        "province_id": "26"
    },
    {
        "id": "2604",
        "name_en": "Amphoe Ongkharak",
        "name_th": "องครักษ์",
        "province_id": "26"
    },
    {
        "id": "2701",
        "name_en": "Amphoe Mueang Sa Kaeo",
        "name_th": "เมืองสระแก้ว",
        "province_id": "27"
    },
    {
        "id": "2702",
        "name_en": "Amphoe Khlong Hat",
        "name_th": "คลองหาด",
        "province_id": "27"
    },
    {
        "id": "2703",
        "name_en": "Amphoe Ta Phraya",
        "name_th": "ตาพระยา",
        "province_id": "27"
    },
    {
        "id": "2704",
        "name_en": "Amphoe Wang Nam Yen",
        "name_th": "วังน้ำเย็น",
        "province_id": "27"
    },
    {
        "id": "2705",
        "name_en": "Amphoe Watthana Nakhon",
        "name_th": "วัฒนานคร",
        "province_id": "27"
    },
    {
        "id": "2706",
        "name_en": "Amphoe Aranyaprathet",
        "name_th": "อรัญประเทศ",
        "province_id": "27"
    },
    {
        "id": "2707",
        "name_en": "Amphoe Khao Chakan",
        "name_th": "เขาฉกรรจ์",
        "province_id": "27"
    },
    {
        "id": "2708",
        "name_en": "Amphoe Khok Sung",
        "name_th": "โคกสูง",
        "province_id": "27"
    },
    {
        "id": "2709",
        "name_en": "Amphoe Wang Sombun",
        "name_th": "วังสมบูรณ์",
        "province_id": "27"
    },
    {
        "id": "3001",
        "name_en": "Amphoe Mueang Nakhon Ratchasima",
        "name_th": "เมืองนครราชสีมา",
        "province_id": "30"
    },
    {
        "id": "3002",
        "name_en": "Amphoe Khon Buri",
        "name_th": "ครบุรี",
        "province_id": "30"
    },
    {
        "id": "3003",
        "name_en": "Amphoe Soeng Sang",
        "name_th": "เสิงสาง",
        "province_id": "30"
    },
    {
        "id": "3004",
        "name_en": "Amphoe Khong",
        "name_th": "คง",
        "province_id": "30"
    },
    {
        "id": "3005",
        "name_en": "Amphoe Ban Lueam",
        "name_th": "บ้านเหลื่อม",
        "province_id": "30"
    },
    {
        "id": "3006",
        "name_en": "Amphoe Chakkarat",
        "name_th": "จักราช",
        "province_id": "30"
    },
    {
        "id": "3007",
        "name_en": "Amphoe Chok Chai",
        "name_th": "โชคชัย",
        "province_id": "30"
    },
    {
        "id": "3008",
        "name_en": "Amphoe Dan Khun Thot",
        "name_th": "ด่านขุนทด",
        "province_id": "30"
    },
    {
        "id": "3009",
        "name_en": "Amphoe Non Thai",
        "name_th": "โนนไทย",
        "province_id": "30"
    },
    {
        "id": "3010",
        "name_en": "Amphoe Non Sung",
        "name_th": "โนนสูง",
        "province_id": "30"
    },
    {
        "id": "3011",
        "name_en": "Amphoe Kham Sakaesaeng",
        "name_th": "ขามสะแกแสง",
        "province_id": "30"
    },
    {
        "id": "3012",
        "name_en": "Amphoe Bua Yai",
        "name_th": "บัวใหญ่",
        "province_id": "30"
    },
    {
        "id": "3013",
        "name_en": "Amphoe Prathai",
        "name_th": "ประทาย",
        "province_id": "30"
    },
    {
        "id": "3014",
        "name_en": "Amphoe Pak Thong Chai",
        "name_th": "ปักธงชัย",
        "province_id": "30"
    },
    {
        "id": "3015",
        "name_en": "Amphoe Phimai",
        "name_th": "พิมาย",
        "province_id": "30"
    },
    {
        "id": "3016",
        "name_en": "Amphoe Huai Thalaeng",
        "name_th": "ห้วยแถลง",
        "province_id": "30"
    },
    {
        "id": "3017",
        "name_en": "Amphoe Chum Phuang",
        "name_th": "ชุมพวง",
        "province_id": "30"
    },
    {
        "id": "3018",
        "name_en": "Amphoe Sung Noen",
        "name_th": "สูงเนิน",
        "province_id": "30"
    },
    {
        "id": "3019",
        "name_en": "Amphoe Kham Thale So",
        "name_th": "ขามทะเลสอ",
        "province_id": "30"
    },
    {
        "id": "3020",
        "name_en": "Amphoe Sikhio",
        "name_th": "สีคิ้ว",
        "province_id": "30"
    },
    {
        "id": "3021",
        "name_en": "Amphoe Pak Chong",
        "name_th": "ปากช่อง",
        "province_id": "30"
    },
    {
        "id": "3022",
        "name_en": "Amphoe Nong Bunmak",
        "name_th": "หนองบุญมาก",
        "province_id": "30"
    },
    {
        "id": "3023",
        "name_en": "Amphoe Kaeng Sanam Nang",
        "name_th": "แก้งสนามนาง",
        "province_id": "30"
    },
    {
        "id": "3024",
        "name_en": "Amphoe Non Daeng",
        "name_th": "โนนแดง",
        "province_id": "30"
    },
    {
        "id": "3025",
        "name_en": "Amphoe Wang Nam Khiao",
        "name_th": "วังน้ำเขียว",
        "province_id": "30"
    },
    {
        "id": "3026",
        "name_en": "Amphoe Thepharak",
        "name_th": "เทพารักษ์",
        "province_id": "30"
    },
    {
        "id": "3027",
        "name_en": "Amphoe Mueang Yang",
        "name_th": "เมืองยาง",
        "province_id": "30"
    },
    {
        "id": "3028",
        "name_en": "Amphoe Phra Thong Kham",
        "name_th": "พระทองคำ",
        "province_id": "30"
    },
    {
        "id": "3029",
        "name_en": "Amphoe Lam Thamenchai",
        "name_th": "ลำทะเมนชัย",
        "province_id": "30"
    },
    {
        "id": "3030",
        "name_en": "Amphoe Bua Lai",
        "name_th": "บัวลาย",
        "province_id": "30"
    },
    {
        "id": "3031",
        "name_en": "Amphoe Sida",
        "name_th": "สีดา",
        "province_id": "30"
    },
    {
        "id": "3032",
        "name_en": "Amphoe Chaloem Phra Kiat",
        "name_th": "เฉลิมพระเกียรติ",
        "province_id": "30"
    },
    {
        "id": "3101",
        "name_en": "Amphoe Mueang Buri Ram",
        "name_th": "เมืองบุรีรัมย์",
        "province_id": "31"
    },
    {
        "id": "3102",
        "name_en": "Amphoe Khu Mueang",
        "name_th": "คูเมือง",
        "province_id": "31"
    },
    {
        "id": "3103",
        "name_en": "Amphoe Krasang",
        "name_th": "กระสัง",
        "province_id": "31"
    },
    {
        "id": "3104",
        "name_en": "Amphoe Nang Rong",
        "name_th": "นางรอง",
        "province_id": "31"
    },
    {
        "id": "3105",
        "name_en": "Amphoe Nong Ki",
        "name_th": "หนองกี่",
        "province_id": "31"
    },
    {
        "id": "3106",
        "name_en": "Amphoe Lahan Sai",
        "name_th": "ละหานทราย",
        "province_id": "31"
    },
    {
        "id": "3107",
        "name_en": "Amphoe Prakhon Chai",
        "name_th": "ประโคนชัย",
        "province_id": "31"
    },
    {
        "id": "3108",
        "name_en": "Amphoe Ban Kruat",
        "name_th": "บ้านกรวด",
        "province_id": "31"
    },
    {
        "id": "3109",
        "name_en": "Amphoe Phutthaisong",
        "name_th": "พุทไธสง",
        "province_id": "31"
    },
    {
        "id": "3110",
        "name_en": "Amphoe Lam Plai Mat",
        "name_th": "ลำปลายมาศ",
        "province_id": "31"
    },
    {
        "id": "3111",
        "name_en": "Amphoe Satuek",
        "name_th": "สตึก",
        "province_id": "31"
    },
    {
        "id": "3112",
        "name_en": "Amphoe Pakham",
        "name_th": "ปะคำ",
        "province_id": "31"
    },
    {
        "id": "3113",
        "name_en": "Amphoe Na Pho",
        "name_th": "นาโพธิ์",
        "province_id": "31"
    },
    {
        "id": "3114",
        "name_en": "Amphoe Nong Hong",
        "name_th": "หนองหงส์",
        "province_id": "31"
    },
    {
        "id": "3115",
        "name_en": "Amphoe Phlapphla Chai",
        "name_th": "พลับพลาชัย",
        "province_id": "31"
    },
    {
        "id": "3116",
        "name_en": "Amphoe Huai Rat",
        "name_th": "ห้วยราช",
        "province_id": "31"
    },
    {
        "id": "3117",
        "name_en": "Amphoe Non Suwan",
        "name_th": "โนนสุวรรณ",
        "province_id": "31"
    },
    {
        "id": "3118",
        "name_en": "Amphoe Chamni",
        "name_th": "ชำนิ",
        "province_id": "31"
    },
    {
        "id": "3119",
        "name_en": "Amphoe Ban Mai Chaiyaphot",
        "name_th": "บ้านใหม่ไชยพจน์",
        "province_id": "31"
    },
    {
        "id": "3120",
        "name_en": "Amphoe Non Din Daeng",
        "name_th": "โนนดินแดง",
        "province_id": "31"
    },
    {
        "id": "3121",
        "name_en": "Amphoe Ban Dan",
        "name_th": "บ้านด่าน",
        "province_id": "31"
    },
    {
        "id": "3122",
        "name_en": "Amphoe Khaen Dong",
        "name_th": "แคนดง",
        "province_id": "31"
    },
    {
        "id": "3123",
        "name_en": "Amphoe Chaloem Phra Kiat",
        "name_th": "เฉลิมพระเกียรติ",
        "province_id": "31"
    },
    {
        "id": "3201",
        "name_en": "Amphoe Mueang Surin",
        "name_th": "เมืองสุรินทร์",
        "province_id": "32"
    },
    {
        "id": "3202",
        "name_en": "Amphoe Chumphon Buri",
        "name_th": "ชุมพลบุรี",
        "province_id": "32"
    },
    {
        "id": "3203",
        "name_en": "Amphoe Tha Tum",
        "name_th": "ท่าตูม",
        "province_id": "32"
    },
    {
        "id": "3204",
        "name_en": "Amphoe Chom Phra",
        "name_th": "จอมพระ",
        "province_id": "32"
    },
    {
        "id": "3205",
        "name_en": "Amphoe Prasat",
        "name_th": "ปราสาท",
        "province_id": "32"
    },
    {
        "id": "3206",
        "name_en": "Amphoe Kap Choeng",
        "name_th": "กาบเชิง",
        "province_id": "32"
    },
    {
        "id": "3207",
        "name_en": "Amphoe Rattanaburi",
        "name_th": "รัตนบุรี",
        "province_id": "32"
    },
    {
        "id": "3208",
        "name_en": "Amphoe Sanom",
        "name_th": "สนม",
        "province_id": "32"
    },
    {
        "id": "3209",
        "name_en": "Amphoe Sikhoraphum",
        "name_th": "ศีขรภูมิ",
        "province_id": "32"
    },
    {
        "id": "3210",
        "name_en": "Amphoe Sangkha",
        "name_th": "สังขะ",
        "province_id": "32"
    },
    {
        "id": "3211",
        "name_en": "Amphoe Lamduan",
        "name_th": "ลำดวน",
        "province_id": "32"
    },
    {
        "id": "3212",
        "name_en": "Amphoe Samrong Thap",
        "name_th": "สำโรงทาบ",
        "province_id": "32"
    },
    {
        "id": "3213",
        "name_en": "Amphoe Buachet",
        "name_th": "บัวเชด",
        "province_id": "32"
    },
    {
        "id": "3214",
        "name_en": "Amphoe Phanom Dong Rak",
        "name_th": "พนมดงรัก",
        "province_id": "32"
    },
    {
        "id": "3215",
        "name_en": "Amphoe Si Narong",
        "name_th": "ศรีณรงค์",
        "province_id": "32"
    },
    {
        "id": "3216",
        "name_en": "Amphoe Khwao Sinrin",
        "name_th": "เขวาสินรินทร์",
        "province_id": "32"
    },
    {
        "id": "3217",
        "name_en": "Amphoe Non Narai",
        "name_th": "โนนนารายณ์",
        "province_id": "32"
    },
    {
        "id": "3301",
        "name_en": "Amphoe Mueang Si Sa Ket",
        "name_th": "เมืองศรีสะเกษ",
        "province_id": "33"
    },
    {
        "id": "3302",
        "name_en": "Amphoe Yang Chum Noi",
        "name_th": "ยางชุมน้อย",
        "province_id": "33"
    },
    {
        "id": "3303",
        "name_en": "Amphoe Kanthararom",
        "name_th": "กันทรารมย์",
        "province_id": "33"
    },
    {
        "id": "3304",
        "name_en": "Amphoe Kantharalak",
        "name_th": "กันทรลักษ์",
        "province_id": "33"
    },
    {
        "id": "3305",
        "name_en": "Amphoe Khukhan",
        "name_th": "ขุขันธ์",
        "province_id": "33"
    },
    {
        "id": "3306",
        "name_en": "Amphoe Phrai Bueng",
        "name_th": "ไพรบึง",
        "province_id": "33"
    },
    {
        "id": "3307",
        "name_en": "Amphoe Prang Ku",
        "name_th": "ปรางค์กู่",
        "province_id": "33"
    },
    {
        "id": "3308",
        "name_en": "Amphoe Khun Han",
        "name_th": "ขุนหาญ",
        "province_id": "33"
    },
    {
        "id": "3309",
        "name_en": "Amphoe Rasi Salai",
        "name_th": "ราษีไศล",
        "province_id": "33"
    },
    {
        "id": "3310",
        "name_en": "Amphoe Uthumphon Phisai",
        "name_th": "อุทุมพรพิสัย",
        "province_id": "33"
    },
    {
        "id": "3311",
        "name_en": "Amphoe Bueng Bun",
        "name_th": "บึงบูรพ์",
        "province_id": "33"
    },
    {
        "id": "3312",
        "name_en": "Amphoe Huai Thap Than",
        "name_th": "ห้วยทับทัน",
        "province_id": "33"
    },
    {
        "id": "3313",
        "name_en": "Amphoe Non Khun",
        "name_th": "โนนคูณ",
        "province_id": "33"
    },
    {
        "id": "3314",
        "name_en": "Amphoe Si Rattana",
        "name_th": "ศรีรัตนะ",
        "province_id": "33"
    },
    {
        "id": "3315",
        "name_en": "Amphoe Nam Kliang",
        "name_th": "น้ำเกลี้ยง",
        "province_id": "33"
    },
    {
        "id": "3316",
        "name_en": "Amphoe Wang Hin",
        "name_th": "วังหิน",
        "province_id": "33"
    },
    {
        "id": "3317",
        "name_en": "Amphoe Phu Sing",
        "name_th": "ภูสิงห์",
        "province_id": "33"
    },
    {
        "id": "3318",
        "name_en": "Amphoe Mueang Chan",
        "name_th": "เมืองจันทร์",
        "province_id": "33"
    },
    {
        "id": "3319",
        "name_en": "Amphoe Benchalak",
        "name_th": "เบญจลักษ์",
        "province_id": "33"
    },
    {
        "id": "3320",
        "name_en": "Amphoe Phayu",
        "name_th": "พยุห์",
        "province_id": "33"
    },
    {
        "id": "3321",
        "name_en": "Amphoe Pho Si Suwan",
        "name_th": "โพธิ์ศรีสุวรรณ",
        "province_id": "33"
    },
    {
        "id": "3322",
        "name_en": "Amphoe Sila Lat",
        "name_th": "ศิลาลาด",
        "province_id": "33"
    },
    {
        "id": "3401",
        "name_en": "Amphoe Mueang Ubon Ratchathani",
        "name_th": "เมืองอุบลราชธานี",
        "province_id": "34"
    },
    {
        "id": "3402",
        "name_en": "Amphoe Si Mueang Mai",
        "name_th": "ศรีเมืองใหม่",
        "province_id": "34"
    },
    {
        "id": "3403",
        "name_en": "Amphoe Khong Chiam",
        "name_th": "โขงเจียม",
        "province_id": "34"
    },
    {
        "id": "3404",
        "name_en": "Amphoe Khueang Nai",
        "name_th": "เขื่องใน",
        "province_id": "34"
    },
    {
        "id": "3405",
        "name_en": "Amphoe Khemarat",
        "name_th": "เขมราฐ",
        "province_id": "34"
    },
    {
        "id": "3407",
        "name_en": "Amphoe Det Udom",
        "name_th": "เดชอุดม",
        "province_id": "34"
    },
    {
        "id": "3408",
        "name_en": "Amphoe Na Chaluai",
        "name_th": "นาจะหลวย",
        "province_id": "34"
    },
    {
        "id": "3409",
        "name_en": "Amphoe Nam Yuen",
        "name_th": "น้ำยืน",
        "province_id": "34"
    },
    {
        "id": "3410",
        "name_en": "Amphoe Buntharik",
        "name_th": "บุณฑริก",
        "province_id": "34"
    },
    {
        "id": "3411",
        "name_en": "Amphoe Trakan Phuet Phon",
        "name_th": "ตระการพืชผล",
        "province_id": "34"
    },
    {
        "id": "3412",
        "name_en": "Amphoe Kut Khaopun",
        "name_th": "กุดข้าวปุ้น",
        "province_id": "34"
    },
    {
        "id": "3414",
        "name_en": "Amphoe Muang Sam Sip",
        "name_th": "ม่วงสามสิบ",
        "province_id": "34"
    },
    {
        "id": "3415",
        "name_en": "Amphoe Warin Chamrap",
        "name_th": "วารินชำราบ",
        "province_id": "34"
    },
    {
        "id": "3419",
        "name_en": "Amphoe Phibun Mangsahan",
        "name_th": "พิบูลมังสาหาร",
        "province_id": "34"
    },
    {
        "id": "3420",
        "name_en": "Amphoe Tan Sum",
        "name_th": "ตาลสุม",
        "province_id": "34"
    },
    {
        "id": "3421",
        "name_en": "Amphoe Pho Sai",
        "name_th": "โพธิ์ไทร",
        "province_id": "34"
    },
    {
        "id": "3422",
        "name_en": "Amphoe Samrong",
        "name_th": "สำโรง",
        "province_id": "34"
    },
    {
        "id": "3424",
        "name_en": "Amphoe Don Mot Daeng",
        "name_th": "ดอนมดแดง",
        "province_id": "34"
    },
    {
        "id": "3425",
        "name_en": "Amphoe Sirindhorn",
        "name_th": "สิรินธร",
        "province_id": "34"
    },
    {
        "id": "3426",
        "name_en": "Amphoe Thung Si Udom",
        "name_th": "ทุ่งศรีอุดม",
        "province_id": "34"
    },
    {
        "id": "3429",
        "name_en": "Amphoe Na Yia",
        "name_th": "นาเยีย",
        "province_id": "34"
    },
    {
        "id": "3430",
        "name_en": "Amphoe Na Tan",
        "name_th": "นาตาล",
        "province_id": "34"
    },
    {
        "id": "3431",
        "name_en": "Fang Kham",
        "name_th": "เหล่าเสือโก้ก",
        "province_id": "34"
    },
    {
        "id": "3432",
        "name_en": "Amphoe Sawang Wirawong",
        "name_th": "สว่างวีระวงศ์",
        "province_id": "34"
    },
    {
        "id": "3433",
        "name_en": "Amphoe Nam Khun",
        "name_th": "น้ำขุ่น",
        "province_id": "34"
    },
    {
        "id": "3501",
        "name_en": "Amphoe Mueang Yasothon",
        "name_th": "เมืองยโสธร",
        "province_id": "35"
    },
    {
        "id": "3502",
        "name_en": "Amphoe Sai Mun",
        "name_th": "ทรายมูล",
        "province_id": "35"
    },
    {
        "id": "3503",
        "name_en": "Amphoe Kut Chum",
        "name_th": "กุดชุม",
        "province_id": "35"
    },
    {
        "id": "3504",
        "name_en": "Amphoe Kham Khuean Kaeo",
        "name_th": "คำเขื่อนแก้ว",
        "province_id": "35"
    },
    {
        "id": "3505",
        "name_en": "Amphoe Pa Tio",
        "name_th": "ป่าติ้ว",
        "province_id": "35"
    },
    {
        "id": "3506",
        "name_en": "Amphoe Maha Chana Chai",
        "name_th": "มหาชนะชัย",
        "province_id": "35"
    },
    {
        "id": "3507",
        "name_en": "Amphoe Kho Wang",
        "name_th": "ค้อวัง",
        "province_id": "35"
    },
    {
        "id": "3508",
        "name_en": "Amphoe Loeng Nok Tha",
        "name_th": "เลิงนกทา",
        "province_id": "35"
    },
    {
        "id": "3509",
        "name_en": "Amphoe Thai Charoen",
        "name_th": "ไทยเจริญ",
        "province_id": "35"
    },
    {
        "id": "3601",
        "name_en": "Amphoe Mueang Chaiyaphum",
        "name_th": "เมืองชัยภูมิ",
        "province_id": "36"
    },
    {
        "id": "3602",
        "name_en": "Amphoe Ban Khwao",
        "name_th": "บ้านเขว้า",
        "province_id": "36"
    },
    {
        "id": "3603",
        "name_en": "Amphoe Khon Sawan",
        "name_th": "คอนสวรรค์",
        "province_id": "36"
    },
    {
        "id": "3604",
        "name_en": "Amphoe Kaset Sombun",
        "name_th": "เกษตรสมบูรณ์",
        "province_id": "36"
    },
    {
        "id": "3605",
        "name_en": "Amphoe Nong Bua Daeng",
        "name_th": "หนองบัวแดง",
        "province_id": "36"
    },
    {
        "id": "3606",
        "name_en": "Amphoe Chatturat",
        "name_th": "จัตุรัส",
        "province_id": "36"
    },
    {
        "id": "3607",
        "name_en": "Amphoe Bamnet Narong",
        "name_th": "บำเหน็จณรงค์",
        "province_id": "36"
    },
    {
        "id": "3608",
        "name_en": "Amphoe Nong Bua Rawe",
        "name_th": "หนองบัวระเหว",
        "province_id": "36"
    },
    {
        "id": "3609",
        "name_en": "Amphoe Thep Sathit",
        "name_th": "เทพสถิต",
        "province_id": "36"
    },
    {
        "id": "3610",
        "name_en": "Amphoe Phu Khiao",
        "name_th": "ภูเขียว",
        "province_id": "36"
    },
    {
        "id": "3611",
        "name_en": "Amphoe Ban Thaen",
        "name_th": "บ้านแท่น",
        "province_id": "36"
    },
    {
        "id": "3612",
        "name_en": "Amphoe Kaeng Khro",
        "name_th": "แก้งคร้อ",
        "province_id": "36"
    },
    {
        "id": "3613",
        "name_en": "Amphoe Khon San",
        "name_th": "คอนสาร",
        "province_id": "36"
    },
    {
        "id": "3614",
        "name_en": "Amphoe Phakdi Chumphon",
        "name_th": "ภักดีชุมพล",
        "province_id": "36"
    },
    {
        "id": "3615",
        "name_en": "Amphoe Noen Sa-nga",
        "name_th": "เนินสง่า",
        "province_id": "36"
    },
    {
        "id": "3616",
        "name_en": "Amphoe Sap Yai",
        "name_th": "ซับใหญ่",
        "province_id": "36"
    },
    {
        "id": "3701",
        "name_en": "Amphoe Mueang Amnat Charoen",
        "name_th": "เมืองอำนาจเจริญ",
        "province_id": "37"
    },
    {
        "id": "3702",
        "name_en": "Amphoe Chanuman",
        "name_th": "ชานุมาน",
        "province_id": "37"
    },
    {
        "id": "3703",
        "name_en": "Amphoe Pathum Ratchawongsa",
        "name_th": "ปทุมราชวงศา",
        "province_id": "37"
    },
    {
        "id": "3704",
        "name_en": "Amphoe Phana",
        "name_th": "พนา",
        "province_id": "37"
    },
    {
        "id": "3705",
        "name_en": "Amphoe Senangkhanikhom",
        "name_th": "เสนางคนิคม",
        "province_id": "37"
    },
    {
        "id": "3706",
        "name_en": "Amphoe Hua Taphan",
        "name_th": "หัวตะพาน",
        "province_id": "37"
    },
    {
        "id": "3707",
        "name_en": "Amphoe Lue Amnat",
        "name_th": "ลืออำนาจ",
        "province_id": "37"
    },
    {
        "id": "3801",
        "name_en": "Amphoe Mueang Bueng Kan",
        "name_th": "เมืองบึงกาฬ",
        "province_id": "38"
    },
    {
        "id": "3802",
        "name_en": "Amphoe Phon Charoen",
        "name_th": "พรเจริญ",
        "province_id": "38"
    },
    {
        "id": "3803",
        "name_en": "Amphoe So Phisai",
        "name_th": "โซ่พิสัย",
        "province_id": "38"
    },
    {
        "id": "3804",
        "name_en": "Amphoe Seka",
        "name_th": "เซกา",
        "province_id": "38"
    },
    {
        "id": "3805",
        "name_en": "Amphoe Pak Khat",
        "name_th": "ปากคาด",
        "province_id": "38"
    },
    {
        "id": "3806",
        "name_en": "Amphoe Bueng Khong Long",
        "name_th": "บึงโขงหลง",
        "province_id": "38"
    },
    {
        "id": "3807",
        "name_en": "Amphoe Si Wilai",
        "name_th": "ศรีวิไล",
        "province_id": "38"
    },
    {
        "id": "3808",
        "name_en": "Amphoe Bung Khla",
        "name_th": "บุ่งคล้า",
        "province_id": "38"
    },
    {
        "id": "3901",
        "name_en": "Amphoe Mueang Nong Bua Lam Phu",
        "name_th": "เมืองหนองบัวลำภู",
        "province_id": "39"
    },
    {
        "id": "3902",
        "name_en": "Amphoe Na Klang",
        "name_th": "นากลาง",
        "province_id": "39"
    },
    {
        "id": "3903",
        "name_en": "Amphoe Non Sang",
        "name_th": "โนนสัง",
        "province_id": "39"
    },
    {
        "id": "3904",
        "name_en": "Amphoe Si Bun Rueang",
        "name_th": "ศรีบุญเรือง",
        "province_id": "39"
    },
    {
        "id": "3905",
        "name_en": "Amphoe Suwannakhuha",
        "name_th": "สุวรรณคูหา",
        "province_id": "39"
    },
    {
        "id": "3906",
        "name_en": "Amphoe Na Wang",
        "name_th": "นาวัง",
        "province_id": "39"
    },
    {
        "id": "4001",
        "name_en": "Amphoe Mueang Khon Kaen",
        "name_th": "เมืองขอนแก่น",
        "province_id": "40"
    },
    {
        "id": "4002",
        "name_en": "Amphoe Ban Fang",
        "name_th": "บ้านฝาง",
        "province_id": "40"
    },
    {
        "id": "4003",
        "name_en": "Amphoe Phra Yuen",
        "name_th": "พระยืน",
        "province_id": "40"
    },
    {
        "id": "4004",
        "name_en": "Amphoe Nong Ruea",
        "name_th": "หนองเรือ",
        "province_id": "40"
    },
    {
        "id": "4005",
        "name_en": "Amphoe Chum Phae",
        "name_th": "ชุมแพ",
        "province_id": "40"
    },
    {
        "id": "4006",
        "name_en": "Amphoe Si Chomphu",
        "name_th": "สีชมพู",
        "province_id": "40"
    },
    {
        "id": "4007",
        "name_en": "Amphoe Nam Phong",
        "name_th": "น้ำพอง",
        "province_id": "40"
    },
    {
        "id": "4008",
        "name_en": "Amphoe Ubolratana",
        "name_th": "อุบลรัตน์",
        "province_id": "40"
    },
    {
        "id": "4009",
        "name_en": "Amphoe Kranuan",
        "name_th": "กระนวน",
        "province_id": "40"
    },
    {
        "id": "4010",
        "name_en": "Amphoe Ban Phai",
        "name_th": "บ้านไผ่",
        "province_id": "40"
    },
    {
        "id": "4011",
        "name_en": "Amphoe Pueai Noi",
        "name_th": "เปือยน้อย",
        "province_id": "40"
    },
    {
        "id": "4012",
        "name_en": "Amphoe Phon",
        "name_th": "พล",
        "province_id": "40"
    },
    {
        "id": "4013",
        "name_en": "Amphoe Waeng Yai",
        "name_th": "แวงใหญ่",
        "province_id": "40"
    },
    {
        "id": "4014",
        "name_en": "Amphoe Waeng Noi",
        "name_th": "แวงน้อย",
        "province_id": "40"
    },
    {
        "id": "4015",
        "name_en": "Amphoe Nong Song Hong",
        "name_th": "หนองสองห้อง",
        "province_id": "40"
    },
    {
        "id": "4016",
        "name_en": "Amphoe Phu Wiang",
        "name_th": "ภูเวียง",
        "province_id": "40"
    },
    {
        "id": "4017",
        "name_en": "Amphoe Mancha Khiri",
        "name_th": "มัญจาคีรี",
        "province_id": "40"
    },
    {
        "id": "4018",
        "name_en": "Amphoe Chonnabot",
        "name_th": "ชนบท",
        "province_id": "40"
    },
    {
        "id": "4019",
        "name_en": "Amphoe Khao Suan Kwang",
        "name_th": "เขาสวนกวาง",
        "province_id": "40"
    },
    {
        "id": "4020",
        "name_en": "Amphoe Phu Pha Man",
        "name_th": "ภูผาม่าน",
        "province_id": "40"
    },
    {
        "id": "4021",
        "name_en": "Amphoe Sam Sung",
        "name_th": "ซำสูง",
        "province_id": "40"
    },
    {
        "id": "4022",
        "name_en": "Amphoe Khok Pho Chai",
        "name_th": "โคกโพธิ์ไชย",
        "province_id": "40"
    },
    {
        "id": "4023",
        "name_en": "Amphoe Nong Na Kham",
        "name_th": "หนองนาคำ",
        "province_id": "40"
    },
    {
        "id": "4024",
        "name_en": "Amphoe Ban Haet",
        "name_th": "บ้านแฮด",
        "province_id": "40"
    },
    {
        "id": "4025",
        "name_en": "Amphoe Non Sila",
        "name_th": "โนนศิลา",
        "province_id": "40"
    },
    {
        "id": "4026",
        "name_en": "Amphoe Wiang Kao",
        "name_th": "เวียงเก่า",
        "province_id": "40"
    },
    {
        "id": "4101",
        "name_en": "Amphoe Mueang Udon Thani",
        "name_th": "เมืองอุดรธานี",
        "province_id": "41"
    },
    {
        "id": "4102",
        "name_en": "Amphoe Kut Chap",
        "name_th": "กุดจับ",
        "province_id": "41"
    },
    {
        "id": "4103",
        "name_en": "Amphoe Nong Wua So",
        "name_th": "หนองวัวซอ",
        "province_id": "41"
    },
    {
        "id": "4104",
        "name_en": "Amphoe Kumphawapi",
        "name_th": "กุมภวาปี",
        "province_id": "41"
    },
    {
        "id": "4105",
        "name_en": "Amphoe Non Sa-at",
        "name_th": "โนนสะอาด",
        "province_id": "41"
    },
    {
        "id": "4106",
        "name_en": "Amphoe Nong Han",
        "name_th": "หนองหาน",
        "province_id": "41"
    },
    {
        "id": "4107",
        "name_en": "Amphoe Thung Fon",
        "name_th": "ทุ่งฝน",
        "province_id": "41"
    },
    {
        "id": "4108",
        "name_en": "Amphoe Chai Wan",
        "name_th": "ไชยวาน",
        "province_id": "41"
    },
    {
        "id": "4109",
        "name_en": "Amphoe Si That",
        "name_th": "ศรีธาตุ",
        "province_id": "41"
    },
    {
        "id": "4110",
        "name_en": "Amphoe Wang Sam Mo",
        "name_th": "วังสามหมอ",
        "province_id": "41"
    },
    {
        "id": "4111",
        "name_en": "Amphoe Ban Dung",
        "name_th": "บ้านดุง",
        "province_id": "41"
    },
    {
        "id": "4117",
        "name_en": "Amphoe Ban Phue",
        "name_th": "บ้านผือ",
        "province_id": "41"
    },
    {
        "id": "4118",
        "name_en": "Amphoe Nam Som",
        "name_th": "น้ำโสม",
        "province_id": "41"
    },
    {
        "id": "4119",
        "name_en": "Amphoe Phen",
        "name_th": "เพ็ญ",
        "province_id": "41"
    },
    {
        "id": "4120",
        "name_en": "Amphoe Sang Khom",
        "name_th": "สร้างคอม",
        "province_id": "41"
    },
    {
        "id": "4121",
        "name_en": "Amphoe Nong Saeng",
        "name_th": "หนองแสง",
        "province_id": "41"
    },
    {
        "id": "4122",
        "name_en": "Amphoe Na Yung",
        "name_th": "นายูง",
        "province_id": "41"
    },
    {
        "id": "4123",
        "name_en": "Amphoe Phibun Rak",
        "name_th": "พิบูลย์รักษ์",
        "province_id": "41"
    },
    {
        "id": "4124",
        "name_en": "Amphoe Ku Kaeo",
        "name_th": "กู่แก้ว",
        "province_id": "41"
    },
    {
        "id": "4125",
        "name_en": "Amphoe Prachak Sinlapakhom",
        "name_th": "ประจักษ์ศิลปาคม",
        "province_id": "41"
    },
    {
        "id": "4201",
        "name_en": "Amphoe Mueang Loei",
        "name_th": "เมืองเลย",
        "province_id": "42"
    },
    {
        "id": "4202",
        "name_en": "Amphoe Na Duang",
        "name_th": "นาด้วง",
        "province_id": "42"
    },
    {
        "id": "4203",
        "name_en": "Amphoe Chiang Khan",
        "name_th": "เชียงคาน",
        "province_id": "42"
    },
    {
        "id": "4204",
        "name_en": "Amphoe Pak Chom",
        "name_th": "ปากชม",
        "province_id": "42"
    },
    {
        "id": "4205",
        "name_en": "Amphoe Dan Sai",
        "name_th": "ด่านซ้าย",
        "province_id": "42"
    },
    {
        "id": "4206",
        "name_en": "Amphoe Na Haeo",
        "name_th": "นาแห้ว",
        "province_id": "42"
    },
    {
        "id": "4207",
        "name_en": "Amphoe Phu Ruea",
        "name_th": "ภูเรือ",
        "province_id": "42"
    },
    {
        "id": "4208",
        "name_en": "Amphoe Tha Li",
        "name_th": "ท่าลี่",
        "province_id": "42"
    },
    {
        "id": "4209",
        "name_en": "Amphoe Wang Saphung",
        "name_th": "วังสะพุง",
        "province_id": "42"
    },
    {
        "id": "4210",
        "name_en": "Amphoe Phu Kradueng",
        "name_th": "ภูกระดึง",
        "province_id": "42"
    },
    {
        "id": "4211",
        "name_en": "Amphoe Phu Luang",
        "name_th": "ภูหลวง",
        "province_id": "42"
    },
    {
        "id": "4212",
        "name_en": "Amphoe Pha Khao",
        "name_th": "ผาขาว",
        "province_id": "42"
    },
    {
        "id": "4213",
        "name_en": "Amphoe Erawan",
        "name_th": "เอราวัณ",
        "province_id": "42"
    },
    {
        "id": "4214",
        "name_en": "Amphoe Nong Hin",
        "name_th": "หนองหิน",
        "province_id": "42"
    },
    {
        "id": "4301",
        "name_en": "Amphoe Mueang Nong Khai",
        "name_th": "เมืองหนองคาย",
        "province_id": "43"
    },
    {
        "id": "4302",
        "name_en": "Amphoe Tha Bo",
        "name_th": "ท่าบ่อ",
        "province_id": "43"
    },
    {
        "id": "4305",
        "name_en": "Amphoe Phon Phisai",
        "name_th": "โพนพิสัย",
        "province_id": "43"
    },
    {
        "id": "4307",
        "name_en": "Amphoe Si Chiang Mai",
        "name_th": "ศรีเชียงใหม่",
        "province_id": "43"
    },
    {
        "id": "4308",
        "name_en": "Amphoe Sangkhom",
        "name_th": "สังคม",
        "province_id": "43"
    },
    {
        "id": "4314",
        "name_en": "Amphoe Sakhrai",
        "name_th": "สระใคร",
        "province_id": "43"
    },
    {
        "id": "4315",
        "name_en": "Amphoe Fao Rai",
        "name_th": "เฝ้าไร่",
        "province_id": "43"
    },
    {
        "id": "4316",
        "name_en": "Amphoe Rattanawapi",
        "name_th": "รัตนวาปี",
        "province_id": "43"
    },
    {
        "id": "4317",
        "name_en": "Amphoe Pho Tak",
        "name_th": "โพธิ์ตาก",
        "province_id": "43"
    },
    {
        "id": "4401",
        "name_en": "Amphoe Mueang Maha Sarakham",
        "name_th": "เมืองมหาสารคาม",
        "province_id": "44"
    },
    {
        "id": "4402",
        "name_en": "Amphoe Kae Dam",
        "name_th": "แกดำ",
        "province_id": "44"
    },
    {
        "id": "4403",
        "name_en": "Amphoe Kosum Phisai",
        "name_th": "โกสุมพิสัย",
        "province_id": "44"
    },
    {
        "id": "4404",
        "name_en": "Amphoe Kantharawichai",
        "name_th": "กันทรวิชัย",
        "province_id": "44"
    },
    {
        "id": "4405",
        "name_en": "Amphoe Chiang Yuen",
        "name_th": "เชียงยืน",
        "province_id": "44"
    },
    {
        "id": "4406",
        "name_en": "Amphoe Borabue",
        "name_th": "บรบือ",
        "province_id": "44"
    },
    {
        "id": "4407",
        "name_en": "Amphoe Na Chueak",
        "name_th": "นาเชือก",
        "province_id": "44"
    },
    {
        "id": "4408",
        "name_en": "Amphoe Phayakkhaphum Phisai",
        "name_th": "พยัคฆภูมิพิสัย",
        "province_id": "44"
    },
    {
        "id": "4409",
        "name_en": "Amphoe Wapi Pathum",
        "name_th": "วาปีปทุม",
        "province_id": "44"
    },
    {
        "id": "4410",
        "name_en": "Amphoe Na Dun",
        "name_th": "นาดูน",
        "province_id": "44"
    },
    {
        "id": "4411",
        "name_en": "Amphoe Yang Si Surat",
        "name_th": "ยางสีสุราช",
        "province_id": "44"
    },
    {
        "id": "4412",
        "name_en": "Amphoe Kut Rang",
        "name_th": "กุดรัง",
        "province_id": "44"
    },
    {
        "id": "4413",
        "name_en": "Amphoe Chuen Chom",
        "name_th": "ชื่นชม",
        "province_id": "44"
    },
    {
        "id": "4501",
        "name_en": "Amphoe Mueang Roi Et",
        "name_th": "เมืองร้อยเอ็ด",
        "province_id": "45"
    },
    {
        "id": "4502",
        "name_en": "Amphoe Kaset Wisai",
        "name_th": "เกษตรวิสัย",
        "province_id": "45"
    },
    {
        "id": "4503",
        "name_en": "Amphoe Pathum Rat",
        "name_th": "ปทุมรัตต์",
        "province_id": "45"
    },
    {
        "id": "4504",
        "name_en": "Amphoe Chaturaphak Phiman",
        "name_th": "จตุรพักตรพิมาน",
        "province_id": "45"
    },
    {
        "id": "4505",
        "name_en": "Amphoe Thawat Buri",
        "name_th": "ธวัชบุรี",
        "province_id": "45"
    },
    {
        "id": "4506",
        "name_en": "Amphoe Phanom Phrai",
        "name_th": "พนมไพร",
        "province_id": "45"
    },
    {
        "id": "4507",
        "name_en": "Amphoe Phon Thong",
        "name_th": "โพนทอง",
        "province_id": "45"
    },
    {
        "id": "4508",
        "name_en": "Amphoe Pho Chai",
        "name_th": "โพธิ์ชัย",
        "province_id": "45"
    },
    {
        "id": "4509",
        "name_en": "Amphoe Nong Phok",
        "name_th": "หนองพอก",
        "province_id": "45"
    },
    {
        "id": "4510",
        "name_en": "Amphoe Selaphum",
        "name_th": "เสลภูมิ",
        "province_id": "45"
    },
    {
        "id": "4511",
        "name_en": "Amphoe Suwannaphum",
        "name_th": "สุวรรณภูมิ",
        "province_id": "45"
    },
    {
        "id": "4512",
        "name_en": "Amphoe Mueang Suang",
        "name_th": "เมืองสรวง",
        "province_id": "45"
    },
    {
        "id": "4513",
        "name_en": "Amphoe Phon Sai",
        "name_th": "โพนทราย",
        "province_id": "45"
    },
    {
        "id": "4514",
        "name_en": "Amphoe At Samat",
        "name_th": "อาจสามารถ",
        "province_id": "45"
    },
    {
        "id": "4515",
        "name_en": "Amphoe Moei Wadi",
        "name_th": "เมยวดี",
        "province_id": "45"
    },
    {
        "id": "4516",
        "name_en": "Amphoe Si Somdet",
        "name_th": "ศรีสมเด็จ",
        "province_id": "45"
    },
    {
        "id": "4517",
        "name_en": "Amphoe Changhan",
        "name_th": "จังหาร",
        "province_id": "45"
    },
    {
        "id": "4518",
        "name_en": "Amphoe Chiang Khwan",
        "name_th": "เชียงขวัญ",
        "province_id": "45"
    },
    {
        "id": "4519",
        "name_en": "Amphoe Nong Hi",
        "name_th": "หนองฮี",
        "province_id": "45"
    },
    {
        "id": "4520",
        "name_en": "Amphoe Thung Khao Luang",
        "name_th": "ทุ่งเขาหลวง",
        "province_id": "45"
    },
    {
        "id": "4601",
        "name_en": "Amphoe Mueang Kalasin",
        "name_th": "เมืองกาฬสินธุ์",
        "province_id": "46"
    },
    {
        "id": "4602",
        "name_en": "Amphoe Na Mon",
        "name_th": "นามน",
        "province_id": "46"
    },
    {
        "id": "4603",
        "name_en": "Amphoe Kamalasai",
        "name_th": "กมลาไสย",
        "province_id": "46"
    },
    {
        "id": "4604",
        "name_en": "Amphoe Rong Kham",
        "name_th": "ร่องคำ",
        "province_id": "46"
    },
    {
        "id": "4605",
        "name_en": "Amphoe Kuchinarai",
        "name_th": "กุฉินารายณ์",
        "province_id": "46"
    },
    {
        "id": "4606",
        "name_en": "Amphoe Khao Wong",
        "name_th": "เขาวง",
        "province_id": "46"
    },
    {
        "id": "4607",
        "name_en": "Amphoe Yang Talat",
        "name_th": "ยางตลาด",
        "province_id": "46"
    },
    {
        "id": "4608",
        "name_en": "Amphoe Huai Mek",
        "name_th": "ห้วยเม็ก",
        "province_id": "46"
    },
    {
        "id": "4609",
        "name_en": "Amphoe Sahatsakhan",
        "name_th": "สหัสขันธ์",
        "province_id": "46"
    },
    {
        "id": "4610",
        "name_en": "Amphoe Kham Muang",
        "name_th": "คำม่วง",
        "province_id": "46"
    },
    {
        "id": "4611",
        "name_en": "Amphoe Tha Khantho",
        "name_th": "ท่าคันโท",
        "province_id": "46"
    },
    {
        "id": "4612",
        "name_en": "Amphoe Nong Kung Si",
        "name_th": "หนองกุงศรี",
        "province_id": "46"
    },
    {
        "id": "4613",
        "name_en": "Amphoe Somdet",
        "name_th": "สมเด็จ",
        "province_id": "46"
    },
    {
        "id": "4614",
        "name_en": "Amphoe Huai Phueng",
        "name_th": "ห้วยผึ้ง",
        "province_id": "46"
    },
    {
        "id": "4615",
        "name_en": "Amphoe Sam Chai",
        "name_th": "สามชัย",
        "province_id": "46"
    },
    {
        "id": "4616",
        "name_en": "Amphoe Na Khu",
        "name_th": "นาคู",
        "province_id": "46"
    },
    {
        "id": "4617",
        "name_en": "Amphoe Don Chan",
        "name_th": "ดอนจาน",
        "province_id": "46"
    },
    {
        "id": "4618",
        "name_en": "Amphoe Khong Chai",
        "name_th": "ฆ้องชัย",
        "province_id": "46"
    },
    {
        "id": "4701",
        "name_en": "Amphoe Mueang Sakon Nakhon",
        "name_th": "เมืองสกลนคร",
        "province_id": "47"
    },
    {
        "id": "4702",
        "name_en": "Amphoe Kusuman",
        "name_th": "กุสุมาลย์",
        "province_id": "47"
    },
    {
        "id": "4703",
        "name_en": "Amphoe Kut Bak",
        "name_th": "กุดบาก",
        "province_id": "47"
    },
    {
        "id": "4704",
        "name_en": "Amphoe Phanna Nikhom",
        "name_th": "พรรณานิคม",
        "province_id": "47"
    },
    {
        "id": "4705",
        "name_en": "Amphoe Phang Khon",
        "name_th": "พังโคน",
        "province_id": "47"
    },
    {
        "id": "4706",
        "name_en": "Amphoe Waritchaphum",
        "name_th": "วาริชภูมิ",
        "province_id": "47"
    },
    {
        "id": "4707",
        "name_en": "Amphoe Nikhom Nam Un",
        "name_th": "นิคมน้ำอูน",
        "province_id": "47"
    },
    {
        "id": "4708",
        "name_en": "Amphoe Wanon Niwat",
        "name_th": "วานรนิวาส",
        "province_id": "47"
    },
    {
        "id": "4709",
        "name_en": "Amphoe Kham Ta Kla",
        "name_th": "คำตากล้า",
        "province_id": "47"
    },
    {
        "id": "4710",
        "name_en": "Amphoe Ban Muang",
        "name_th": "บ้านม่วง",
        "province_id": "47"
    },
    {
        "id": "4711",
        "name_en": "Amphoe Akat Amnuai",
        "name_th": "อากาศอำนวย",
        "province_id": "47"
    },
    {
        "id": "4712",
        "name_en": "Amphoe Sawang Daen Din",
        "name_th": "สว่างแดนดิน",
        "province_id": "47"
    },
    {
        "id": "4713",
        "name_en": "Amphoe Song Dao",
        "name_th": "ส่องดาว",
        "province_id": "47"
    },
    {
        "id": "4714",
        "name_en": "Amphoe Tao Ngoi",
        "name_th": "เต่างอย",
        "province_id": "47"
    },
    {
        "id": "4715",
        "name_en": "Amphoe Khok Si Suphan",
        "name_th": "โคกศรีสุพรรณ",
        "province_id": "47"
    },
    {
        "id": "4716",
        "name_en": "Amphoe Charoen Sin",
        "name_th": "เจริญศิลป์",
        "province_id": "47"
    },
    {
        "id": "4717",
        "name_en": "Amphoe Phon Na Kaeo",
        "name_th": "โพนนาแก้ว",
        "province_id": "47"
    },
    {
        "id": "4718",
        "name_en": "Amphoe Phu Phan",
        "name_th": "ภูพาน",
        "province_id": "47"
    },
    {
        "id": "4801",
        "name_en": "Amphoe Mueang Nakhon Phanom",
        "name_th": "เมืองนครพนม",
        "province_id": "48"
    },
    {
        "id": "4802",
        "name_en": "Amphoe Pla Pak",
        "name_th": "ปลาปาก",
        "province_id": "48"
    },
    {
        "id": "4803",
        "name_en": "Amphoe Tha Uthen",
        "name_th": "ท่าอุเทน",
        "province_id": "48"
    },
    {
        "id": "4804",
        "name_en": "Amphoe Ban Phaeng",
        "name_th": "บ้านแพง",
        "province_id": "48"
    },
    {
        "id": "4805",
        "name_en": "Amphoe That Phanom",
        "name_th": "ธาตุพนม",
        "province_id": "48"
    },
    {
        "id": "4806",
        "name_en": "Amphoe Renu Nakhon",
        "name_th": "เรณูนคร",
        "province_id": "48"
    },
    {
        "id": "4807",
        "name_en": "Amphoe Na Kae",
        "name_th": "นาแก",
        "province_id": "48"
    },
    {
        "id": "4808",
        "name_en": "Amphoe Si Songkhram",
        "name_th": "ศรีสงคราม",
        "province_id": "48"
    },
    {
        "id": "4809",
        "name_en": "Amphoe Na Wa",
        "name_th": "นาหว้า",
        "province_id": "48"
    },
    {
        "id": "4810",
        "name_en": "Amphoe Phon Sawan",
        "name_th": "โพนสวรรค์",
        "province_id": "48"
    },
    {
        "id": "4811",
        "name_en": "Amphoe Na Thom",
        "name_th": "นาทม",
        "province_id": "48"
    },
    {
        "id": "4812",
        "name_en": "Amphoe Wang Yang",
        "name_th": "วังยาง",
        "province_id": "48"
    },
    {
        "id": "4901",
        "name_en": "Amphoe Mueang Mukdahan",
        "name_th": "เมืองมุกดาหาร",
        "province_id": "49"
    },
    {
        "id": "4902",
        "name_en": "Amphoe Nikhom Kham Soi",
        "name_th": "นิคมคำสร้อย",
        "province_id": "49"
    },
    {
        "id": "4903",
        "name_en": "Amphoe Don Tan",
        "name_th": "ดอนตาล",
        "province_id": "49"
    },
    {
        "id": "4904",
        "name_en": "Amphoe Dong Luang",
        "name_th": "ดงหลวง",
        "province_id": "49"
    },
    {
        "id": "4905",
        "name_en": "Amphoe Khamcha-i",
        "name_th": "คำชะอี",
        "province_id": "49"
    },
    {
        "id": "4906",
        "name_en": "Amphoe Wan Yai",
        "name_th": "หว้านใหญ่",
        "province_id": "49"
    },
    {
        "id": "4907",
        "name_en": "Amphoe Nong Sung",
        "name_th": "หนองสูง",
        "province_id": "49"
    },
    {
        "id": "5001",
        "name_en": "Amphoe Mueang Chiang Mai",
        "name_th": "เมืองเชียงใหม่",
        "province_id": "50"
    },
    {
        "id": "5002",
        "name_en": "Amphoe Chom Thong",
        "name_th": "จอมทอง",
        "province_id": "50"
    },
    {
        "id": "5003",
        "name_en": "Amphoe Mae Chaem",
        "name_th": "แม่แจ่ม",
        "province_id": "50"
    },
    {
        "id": "5004",
        "name_en": "Amphoe Chiang Dao",
        "name_th": "เชียงดาว",
        "province_id": "50"
    },
    {
        "id": "5005",
        "name_en": "Amphoe Doi Saket",
        "name_th": "ดอยสะเก็ด",
        "province_id": "50"
    },
    {
        "id": "5006",
        "name_en": "Amphoe Mae Taeng",
        "name_th": "แม่แตง",
        "province_id": "50"
    },
    {
        "id": "5007",
        "name_en": "Amphoe Mae Rim",
        "name_th": "แม่ริม",
        "province_id": "50"
    },
    {
        "id": "5008",
        "name_en": "Amphoe Samoeng",
        "name_th": "สะเมิง",
        "province_id": "50"
    },
    {
        "id": "5009",
        "name_en": "Amphoe Fang",
        "name_th": "ฝาง",
        "province_id": "50"
    },
    {
        "id": "5010",
        "name_en": "Amphoe Mae Ai",
        "name_th": "แม่อาย",
        "province_id": "50"
    },
    {
        "id": "5011",
        "name_en": "Amphoe Phrao",
        "name_th": "พร้าว",
        "province_id": "50"
    },
    {
        "id": "5012",
        "name_en": "Amphoe San Pa Tong",
        "name_th": "สันป่าตอง",
        "province_id": "50"
    },
    {
        "id": "5013",
        "name_en": "Amphoe San Kamphaeng",
        "name_th": "สันกำแพง",
        "province_id": "50"
    },
    {
        "id": "5014",
        "name_en": "Amphoe San Sai",
        "name_th": "สันทราย",
        "province_id": "50"
    },
    {
        "id": "5015",
        "name_en": "Amphoe Hang Dong",
        "name_th": "หางดง",
        "province_id": "50"
    },
    {
        "id": "5016",
        "name_en": "Amphoe Hot",
        "name_th": "ฮอด",
        "province_id": "50"
    },
    {
        "id": "5017",
        "name_en": "Amphoe Doi Tao",
        "name_th": "ดอยเต่า",
        "province_id": "50"
    },
    {
        "id": "5018",
        "name_en": "Amphoe Omkoi",
        "name_th": "อมก๋อย",
        "province_id": "50"
    },
    {
        "id": "5019",
        "name_en": "Amphoe Saraphi",
        "name_th": "สารภี",
        "province_id": "50"
    },
    {
        "id": "5020",
        "name_en": "Amphoe Wiang Haeng",
        "name_th": "เวียงแหง",
        "province_id": "50"
    },
    {
        "id": "5021",
        "name_en": "Amphoe Chai Prakan",
        "name_th": "ไชยปราการ",
        "province_id": "50"
    },
    {
        "id": "5022",
        "name_en": "Amphoe Mae Wang",
        "name_th": "แม่วาง",
        "province_id": "50"
    },
    {
        "id": "5023",
        "name_en": "Amphoe Mae On",
        "name_th": "แม่ออน",
        "province_id": "50"
    },
    {
        "id": "5024",
        "name_en": "Amphoe Doi Lo",
        "name_th": "ดอยหล่อ",
        "province_id": "50"
    },
    {
        "id": "5025",
        "name_en": "Amphoe Galayani Vadhana",
        "name_th": "กัลยาณิวัฒนา",
        "province_id": "50"
    },
    {
        "id": "5101",
        "name_en": "Amphoe Mueang Lamphun",
        "name_th": "เมืองลำพูน",
        "province_id": "51"
    },
    {
        "id": "5102",
        "name_en": "Amphoe Mae Tha",
        "name_th": "แม่ทา",
        "province_id": "51"
    },
    {
        "id": "5103",
        "name_en": "Amphoe Ban Hong",
        "name_th": "บ้านโฮ่ง",
        "province_id": "51"
    },
    {
        "id": "5104",
        "name_en": "Amphoe Li",
        "name_th": "ลี้",
        "province_id": "51"
    },
    {
        "id": "5105",
        "name_en": "Amphoe Thung Hua Chang",
        "name_th": "ทุ่งหัวช้าง",
        "province_id": "51"
    },
    {
        "id": "5106",
        "name_en": "Amphoe Pa Sang",
        "name_th": "ป่าซาง",
        "province_id": "51"
    },
    {
        "id": "5107",
        "name_en": "Amphoe Ban Thi",
        "name_th": "บ้านธิ",
        "province_id": "51"
    },
    {
        "id": "5108",
        "name_en": "Amphoe Wiang Nong Long",
        "name_th": "เวียงหนองล่อง",
        "province_id": "51"
    },
    {
        "id": "5201",
        "name_en": "Amphoe Mueang Lampang",
        "name_th": "เมืองลำปาง",
        "province_id": "52"
    },
    {
        "id": "5202",
        "name_en": "Amphoe Mae Mo",
        "name_th": "แม่เมาะ",
        "province_id": "52"
    },
    {
        "id": "5203",
        "name_en": "Amphoe Ko Kha",
        "name_th": "เกาะคา",
        "province_id": "52"
    },
    {
        "id": "5204",
        "name_en": "Amphoe Soem Ngam",
        "name_th": "เสริมงาม",
        "province_id": "52"
    },
    {
        "id": "5205",
        "name_en": "Amphoe Ngao",
        "name_th": "งาว",
        "province_id": "52"
    },
    {
        "id": "5206",
        "name_en": "Amphoe Chae Hom",
        "name_th": "แจ้ห่ม",
        "province_id": "52"
    },
    {
        "id": "5207",
        "name_en": "Amphoe Wang Nuea",
        "name_th": "วังเหนือ",
        "province_id": "52"
    },
    {
        "id": "5208",
        "name_en": "Amphoe Thoen",
        "name_th": "เถิน",
        "province_id": "52"
    },
    {
        "id": "5209",
        "name_en": "Amphoe Mae Phrik",
        "name_th": "แม่พริก",
        "province_id": "52"
    },
    {
        "id": "5210",
        "name_en": "Amphoe Mae Tha",
        "name_th": "แม่ทะ",
        "province_id": "52"
    },
    {
        "id": "5211",
        "name_en": "Amphoe Sop Prap",
        "name_th": "สบปราบ",
        "province_id": "52"
    },
    {
        "id": "5212",
        "name_en": "Amphoe Hang Chat",
        "name_th": "ห้างฉัตร",
        "province_id": "52"
    },
    {
        "id": "5213",
        "name_en": "Amphoe Mueang Pan",
        "name_th": "เมืองปาน",
        "province_id": "52"
    },
    {
        "id": "5301",
        "name_en": "Amphoe Mueang Uttaradit",
        "name_th": "เมืองอุตรดิตถ์",
        "province_id": "53"
    },
    {
        "id": "5302",
        "name_en": "Amphoe Tron",
        "name_th": "ตรอน",
        "province_id": "53"
    },
    {
        "id": "5303",
        "name_en": "Amphoe Tha Pla",
        "name_th": "ท่าปลา",
        "province_id": "53"
    },
    {
        "id": "5304",
        "name_en": "Amphoe Nam Pat",
        "name_th": "น้ำปาด",
        "province_id": "53"
    },
    {
        "id": "5305",
        "name_en": "Amphoe Fak Tha",
        "name_th": "ฟากท่า",
        "province_id": "53"
    },
    {
        "id": "5306",
        "name_en": "Amphoe Ban Khok",
        "name_th": "บ้านโคก",
        "province_id": "53"
    },
    {
        "id": "5307",
        "name_en": "Amphoe Phichai",
        "name_th": "พิชัย",
        "province_id": "53"
    },
    {
        "id": "5308",
        "name_en": "Amphoe Laplae",
        "name_th": "ลับแล",
        "province_id": "53"
    },
    {
        "id": "5309",
        "name_en": "Amphoe Thong Saen Khan",
        "name_th": "ทองแสนขัน",
        "province_id": "53"
    },
    {
        "id": "5401",
        "name_en": "Amphoe Mueang Phrae",
        "name_th": "เมืองแพร่",
        "province_id": "54"
    },
    {
        "id": "5402",
        "name_en": "Amphoe Rong Kwang",
        "name_th": "ร้องกวาง",
        "province_id": "54"
    },
    {
        "id": "5403",
        "name_en": "Amphoe Long",
        "name_th": "ลอง",
        "province_id": "54"
    },
    {
        "id": "5404",
        "name_en": "Amphoe Sung Men",
        "name_th": "สูงเม่น",
        "province_id": "54"
    },
    {
        "id": "5405",
        "name_en": "Amphoe Den Chai",
        "name_th": "เด่นชัย",
        "province_id": "54"
    },
    {
        "id": "5406",
        "name_en": "Amphoe Song",
        "name_th": "สอง",
        "province_id": "54"
    },
    {
        "id": "5407",
        "name_en": "Amphoe Wang Chin",
        "name_th": "วังชิ้น",
        "province_id": "54"
    },
    {
        "id": "5408",
        "name_en": "Amphoe Nong Muang Khai",
        "name_th": "หนองม่วงไข่",
        "province_id": "54"
    },
    {
        "id": "5501",
        "name_en": "Amphoe Mueang Nan",
        "name_th": "เมืองน่าน",
        "province_id": "55"
    },
    {
        "id": "5502",
        "name_en": "Amphoe Mae Charim",
        "name_th": "แม่จริม",
        "province_id": "55"
    },
    {
        "id": "5503",
        "name_en": "Amphoe Ban Luang",
        "name_th": "บ้านหลวง",
        "province_id": "55"
    },
    {
        "id": "5504",
        "name_en": "Amphoe Na Noi",
        "name_th": "นาน้อย",
        "province_id": "55"
    },
    {
        "id": "5505",
        "name_en": "Amphoe Pua",
        "name_th": "ปัว",
        "province_id": "55"
    },
    {
        "id": "5506",
        "name_en": "Amphoe Tha Wang Pha",
        "name_th": "ท่าวังผา",
        "province_id": "55"
    },
    {
        "id": "5507",
        "name_en": "Amphoe Wiang Sa",
        "name_th": "เวียงสา",
        "province_id": "55"
    },
    {
        "id": "5508",
        "name_en": "Amphoe Thung Chang",
        "name_th": "ทุ่งช้าง",
        "province_id": "55"
    },
    {
        "id": "5509",
        "name_en": "Amphoe Chiang Klang",
        "name_th": "เชียงกลาง",
        "province_id": "55"
    },
    {
        "id": "5510",
        "name_en": "Amphoe Na Muen",
        "name_th": "นาหมื่น",
        "province_id": "55"
    },
    {
        "id": "5511",
        "name_en": "Amphoe Santi Suk",
        "name_th": "สันติสุข",
        "province_id": "55"
    },
    {
        "id": "5512",
        "name_en": "Amphoe Bo Kluea",
        "name_th": "บ่อเกลือ",
        "province_id": "55"
    },
    {
        "id": "5513",
        "name_en": "Amphoe Song Khwae",
        "name_th": "สองแคว",
        "province_id": "55"
    },
    {
        "id": "5514",
        "name_en": "Amphoe Phu Phiang",
        "name_th": "ภูเพียง",
        "province_id": "55"
    },
    {
        "id": "5515",
        "name_en": "Amphoe Chaloem Phra Kiat",
        "name_th": "เฉลิมพระเกียรติ",
        "province_id": "55"
    },
    {
        "id": "5601",
        "name_en": "Amphoe Mueang Phayao",
        "name_th": "เมืองพะเยา",
        "province_id": "56"
    },
    {
        "id": "5602",
        "name_en": "Amphoe Chun",
        "name_th": "จุน",
        "province_id": "56"
    },
    {
        "id": "5603",
        "name_en": "Amphoe Chiang Kham",
        "name_th": "เชียงคำ",
        "province_id": "56"
    },
    {
        "id": "5604",
        "name_en": "Amphoe Chiang Muan",
        "name_th": "เชียงม่วน",
        "province_id": "56"
    },
    {
        "id": "5605",
        "name_en": "Amphoe Dok Khamtai",
        "name_th": "ดอกคำใต้",
        "province_id": "56"
    },
    {
        "id": "5606",
        "name_en": "Amphoe Pong",
        "name_th": "ปง",
        "province_id": "56"
    },
    {
        "id": "5607",
        "name_en": "Amphoe Mae Chai",
        "name_th": "แม่ใจ",
        "province_id": "56"
    },
    {
        "id": "5608",
        "name_en": "Amphoe Phu Sang",
        "name_th": "ภูซาง",
        "province_id": "56"
    },
    {
        "id": "5609",
        "name_en": "Amphoe Phu Kamyao",
        "name_th": "ภูกามยาว",
        "province_id": "56"
    },
    {
        "id": "5701",
        "name_en": "Amphoe Mueang Chiang Rai",
        "name_th": "เมืองเชียงราย",
        "province_id": "57"
    },
    {
        "id": "5702",
        "name_en": "Amphoe Wiang Chai",
        "name_th": "เวียงชัย",
        "province_id": "57"
    },
    {
        "id": "5703",
        "name_en": "Amphoe Chiang Khong",
        "name_th": "เชียงของ",
        "province_id": "57"
    },
    {
        "id": "5704",
        "name_en": "Amphoe Thoeng",
        "name_th": "เทิง",
        "province_id": "57"
    },
    {
        "id": "5705",
        "name_en": "Amphoe Phan",
        "name_th": "พาน",
        "province_id": "57"
    },
    {
        "id": "5706",
        "name_en": "Amphoe Pa Daet",
        "name_th": "ป่าแดด",
        "province_id": "57"
    },
    {
        "id": "5707",
        "name_en": "Amphoe Mae Chan",
        "name_th": "แม่จัน",
        "province_id": "57"
    },
    {
        "id": "5708",
        "name_en": "Amphoe Chiang Saen",
        "name_th": "เชียงแสน",
        "province_id": "57"
    },
    {
        "id": "5709",
        "name_en": "Amphoe Mae Sai",
        "name_th": "แม่สาย",
        "province_id": "57"
    },
    {
        "id": "5710",
        "name_en": "Amphoe Mae Suai",
        "name_th": "แม่สรวย",
        "province_id": "57"
    },
    {
        "id": "5711",
        "name_en": "Amphoe Wiang Pa Pao",
        "name_th": "เวียงป่าเป้า",
        "province_id": "57"
    },
    {
        "id": "5712",
        "name_en": "Amphoe Phaya Mengrai",
        "name_th": "พญาเม็งราย",
        "province_id": "57"
    },
    {
        "id": "5713",
        "name_en": "Amphoe Wiang Kaen",
        "name_th": "เวียงแก่น",
        "province_id": "57"
    },
    {
        "id": "5714",
        "name_en": "Amphoe Khun Tan",
        "name_th": "ขุนตาล",
        "province_id": "57"
    },
    {
        "id": "5715",
        "name_en": "Amphoe Mae Fa Luang",
        "name_th": "แม่ฟ้าหลวง",
        "province_id": "57"
    },
    {
        "id": "5716",
        "name_en": "Amphoe Mae Lao",
        "name_th": "แม่ลาว",
        "province_id": "57"
    },
    {
        "id": "5717",
        "name_en": "Amphoe Wiang Chiang Rung",
        "name_th": "เวียงเชียงรุ้ง",
        "province_id": "57"
    },
    {
        "id": "5718",
        "name_en": "Amphoe Doi Luang",
        "name_th": "ดอยหลวง",
        "province_id": "57"
    },
    {
        "id": "5801",
        "name_en": "Amphoe Mueang Mae Hong Son",
        "name_th": "เมืองแม่ฮ่องสอน",
        "province_id": "58"
    },
    {
        "id": "5802",
        "name_en": "Amphoe Khun Yuam",
        "name_th": "ขุนยวม",
        "province_id": "58"
    },
    {
        "id": "5803",
        "name_en": "Amphoe Pai",
        "name_th": "ปาย",
        "province_id": "58"
    },
    {
        "id": "5804",
        "name_en": "Amphoe Mae Sariang",
        "name_th": "แม่สะเรียง",
        "province_id": "58"
    },
    {
        "id": "5805",
        "name_en": "Amphoe Mae La Noi",
        "name_th": "แม่ลาน้อย",
        "province_id": "58"
    },
    {
        "id": "5806",
        "name_en": "Amphoe Sop Moei",
        "name_th": "สบเมย",
        "province_id": "58"
    },
    {
        "id": "5807",
        "name_en": "Amphoe Pang Mapha",
        "name_th": "ปางมะผ้า",
        "province_id": "58"
    },
    {
        "id": "6001",
        "name_en": "Amphoe Mueang Nakhon Sawan",
        "name_th": "เมืองนครสวรรค์",
        "province_id": "60"
    },
    {
        "id": "6002",
        "name_en": "Amphoe Krok Phra",
        "name_th": "โกรกพระ",
        "province_id": "60"
    },
    {
        "id": "6003",
        "name_en": "Amphoe Chum Saeng",
        "name_th": "ชุมแสง",
        "province_id": "60"
    },
    {
        "id": "6004",
        "name_en": "Amphoe Nong Bua",
        "name_th": "หนองบัว",
        "province_id": "60"
    },
    {
        "id": "6005",
        "name_en": "Amphoe Banphot Phisai",
        "name_th": "บรรพตพิสัย",
        "province_id": "60"
    },
    {
        "id": "6006",
        "name_en": "Amphoe Kao Liao",
        "name_th": "เก้าเลี้ยว",
        "province_id": "60"
    },
    {
        "id": "6007",
        "name_en": "Amphoe Takhli",
        "name_th": "ตาคลี",
        "province_id": "60"
    },
    {
        "id": "6008",
        "name_en": "Amphoe Tha Tako",
        "name_th": "ท่าตะโก",
        "province_id": "60"
    },
    {
        "id": "6009",
        "name_en": "Amphoe Phaisali",
        "name_th": "ไพศาลี",
        "province_id": "60"
    },
    {
        "id": "6010",
        "name_en": "Amphoe Phayuha Khiri",
        "name_th": "พยุหะคีรี",
        "province_id": "60"
    },
    {
        "id": "6011",
        "name_en": "Amphoe Lat Yao",
        "name_th": "ลาดยาว",
        "province_id": "60"
    },
    {
        "id": "6012",
        "name_en": "Amphoe Tak Fa",
        "name_th": "ตากฟ้า",
        "province_id": "60"
    },
    {
        "id": "6013",
        "name_en": "Amphoe Mae Wong",
        "name_th": "แม่วงก์",
        "province_id": "60"
    },
    {
        "id": "6014",
        "name_en": "Amphoe Mae Poen",
        "name_th": "แม่เปิน",
        "province_id": "60"
    },
    {
        "id": "6015",
        "name_en": "Amphoe Chum Ta Bong",
        "name_th": "ชุมตาบง",
        "province_id": "60"
    },
    {
        "id": "6101",
        "name_en": "Amphoe Mueang Uthai Thani",
        "name_th": "เมืองอุทัยธานี",
        "province_id": "61"
    },
    {
        "id": "6102",
        "name_en": "Amphoe Thap Than",
        "name_th": "ทัพทัน",
        "province_id": "61"
    },
    {
        "id": "6103",
        "name_en": "Amphoe Sawang Arom",
        "name_th": "สว่างอารมณ์",
        "province_id": "61"
    },
    {
        "id": "6104",
        "name_en": "Amphoe Nong Chang",
        "name_th": "หนองฉาง",
        "province_id": "61"
    },
    {
        "id": "6105",
        "name_en": "Amphoe Nong Khayang",
        "name_th": "หนองขาหย่าง",
        "province_id": "61"
    },
    {
        "id": "6106",
        "name_en": "Amphoe Ban Rai",
        "name_th": "บ้านไร่",
        "province_id": "61"
    },
    {
        "id": "6107",
        "name_en": "Amphoe Lan Sak",
        "name_th": "ลานสัก",
        "province_id": "61"
    },
    {
        "id": "6108",
        "name_en": "Amphoe Huai Khot",
        "name_th": "ห้วยคต",
        "province_id": "61"
    },
    {
        "id": "6201",
        "name_en": "Amphoe Mueang Kamphaeng Phet",
        "name_th": "เมืองกำแพงเพชร",
        "province_id": "62"
    },
    {
        "id": "6202",
        "name_en": "Amphoe Sai Ngam",
        "name_th": "ไทรงาม",
        "province_id": "62"
    },
    {
        "id": "6203",
        "name_en": "Amphoe Khlong Lan",
        "name_th": "คลองลาน",
        "province_id": "62"
    },
    {
        "id": "6204",
        "name_en": "Amphoe Khanu Woralaksaburi",
        "name_th": "ขาณุวรลักษบุรี",
        "province_id": "62"
    },
    {
        "id": "6205",
        "name_en": "Amphoe Khlong Khlung",
        "name_th": "คลองขลุง",
        "province_id": "62"
    },
    {
        "id": "6206",
        "name_en": "Amphoe Phran Kratai",
        "name_th": "พรานกระต่าย",
        "province_id": "62"
    },
    {
        "id": "6207",
        "name_en": "Amphoe Lan Krabue",
        "name_th": "ลานกระบือ",
        "province_id": "62"
    },
    {
        "id": "6208",
        "name_en": "Amphoe Sai Thong Watthana",
        "name_th": "ทรายทองวัฒนา",
        "province_id": "62"
    },
    {
        "id": "6209",
        "name_en": "Amphoe Pang Sila Thong",
        "name_th": "ปางศิลาทอง",
        "province_id": "62"
    },
    {
        "id": "6210",
        "name_en": "Amphoe Bueng Samakkhi",
        "name_th": "บึงสามัคคี",
        "province_id": "62"
    },
    {
        "id": "6211",
        "name_en": "Amphoe Kosamphi Nakhon",
        "name_th": "โกสัมพีนคร",
        "province_id": "62"
    },
    {
        "id": "6301",
        "name_en": "Amphoe Mueang Tak",
        "name_th": "เมืองตาก",
        "province_id": "63"
    },
    {
        "id": "6302",
        "name_en": "Amphoe Ban Tak",
        "name_th": "บ้านตาก",
        "province_id": "63"
    },
    {
        "id": "6303",
        "name_en": "Amphoe Sam Ngao",
        "name_th": "สามเงา",
        "province_id": "63"
    },
    {
        "id": "6304",
        "name_en": "Amphoe Mae Ramat",
        "name_th": "แม่ระมาด",
        "province_id": "63"
    },
    {
        "id": "6305",
        "name_en": "Amphoe Tha Song Yang",
        "name_th": "ท่าสองยาง",
        "province_id": "63"
    },
    {
        "id": "6306",
        "name_en": "Amphoe Mae Sot",
        "name_th": "แม่สอด",
        "province_id": "63"
    },
    {
        "id": "6307",
        "name_en": "Amphoe Phop Phra",
        "name_th": "พบพระ",
        "province_id": "63"
    },
    {
        "id": "6308",
        "name_en": "Amphoe Umphang",
        "name_th": "อุ้มผาง",
        "province_id": "63"
    },
    {
        "id": "6309",
        "name_en": "Amphoe Wang Chao",
        "name_th": "วังเจ้า",
        "province_id": "63"
    },
    {
        "id": "6401",
        "name_en": "Amphoe Mueang Sukhothai",
        "name_th": "เมืองสุโขทัย",
        "province_id": "64"
    },
    {
        "id": "6402",
        "name_en": "Amphoe Ban Dan Lan Hoi",
        "name_th": "บ้านด่านลานหอย",
        "province_id": "64"
    },
    {
        "id": "6403",
        "name_en": "Amphoe Khiri Mat",
        "name_th": "คีรีมาศ",
        "province_id": "64"
    },
    {
        "id": "6404",
        "name_en": "Amphoe Kong Krailat",
        "name_th": "กงไกรลาศ",
        "province_id": "64"
    },
    {
        "id": "6405",
        "name_en": "Amphoe Si Satchanalai",
        "name_th": "ศรีสัชนาลัย",
        "province_id": "64"
    },
    {
        "id": "6406",
        "name_en": "Amphoe Si Samrong",
        "name_th": "ศรีสำโรง",
        "province_id": "64"
    },
    {
        "id": "6407",
        "name_en": "Amphoe Sawankhalok",
        "name_th": "สวรรคโลก",
        "province_id": "64"
    },
    {
        "id": "6408",
        "name_en": "Amphoe Si Nakhon",
        "name_th": "ศรีนคร",
        "province_id": "64"
    },
    {
        "id": "6409",
        "name_en": "Amphoe Thung Saliam",
        "name_th": "ทุ่งเสลี่ยม",
        "province_id": "64"
    },
    {
        "id": "6501",
        "name_en": "Amphoe Mueang Phitsanulok",
        "name_th": "เมืองพิษณุโลก",
        "province_id": "65"
    },
    {
        "id": "6502",
        "name_en": "Amphoe Nakhon Thai",
        "name_th": "นครไทย",
        "province_id": "65"
    },
    {
        "id": "6503",
        "name_en": "Amphoe Chat Trakan",
        "name_th": "ชาติตระการ",
        "province_id": "65"
    },
    {
        "id": "6504",
        "name_en": "Amphoe Bang Rakam",
        "name_th": "บางระกำ",
        "province_id": "65"
    },
    {
        "id": "6505",
        "name_en": "Amphoe Bang Krathum",
        "name_th": "บางกระทุ่ม",
        "province_id": "65"
    },
    {
        "id": "6506",
        "name_en": "Amphoe Phrom Phiram",
        "name_th": "พรหมพิราม",
        "province_id": "65"
    },
    {
        "id": "6507",
        "name_en": "Amphoe Wat Bot",
        "name_th": "วัดโบสถ์",
        "province_id": "65"
    },
    {
        "id": "6508",
        "name_en": "Amphoe Wang Thong",
        "name_th": "วังทอง",
        "province_id": "65"
    },
    {
        "id": "6509",
        "name_en": "Amphoe Noen Maprang",
        "name_th": "เนินมะปราง",
        "province_id": "65"
    },
    {
        "id": "6601",
        "name_en": "Amphoe Mueang Phichit",
        "name_th": "เมืองพิจิตร",
        "province_id": "66"
    },
    {
        "id": "6602",
        "name_en": "Amphoe Wang Sai Phun",
        "name_th": "วังทรายพูน",
        "province_id": "66"
    },
    {
        "id": "6603",
        "name_en": "Amphoe Pho Prathap Chang",
        "name_th": "โพธิ์ประทับช้าง",
        "province_id": "66"
    },
    {
        "id": "6604",
        "name_en": "Amphoe Taphan Hin",
        "name_th": "ตะพานหิน",
        "province_id": "66"
    },
    {
        "id": "6605",
        "name_en": "Amphoe Bang Mun Nak",
        "name_th": "บางมูลนาก",
        "province_id": "66"
    },
    {
        "id": "6606",
        "name_en": "Amphoe Pho Thale",
        "name_th": "โพทะเล",
        "province_id": "66"
    },
    {
        "id": "6607",
        "name_en": "Amphoe Sam Ngam",
        "name_th": "สามง่าม",
        "province_id": "66"
    },
    {
        "id": "6608",
        "name_en": "Amphoe Thap Khlo",
        "name_th": "ทับคล้อ",
        "province_id": "66"
    },
    {
        "id": "6609",
        "name_en": "Amphoe Sak Lek",
        "name_th": "สากเหล็ก",
        "province_id": "66"
    },
    {
        "id": "6610",
        "name_en": "Amphoe Bueng Na Rang",
        "name_th": "บึงนาราง",
        "province_id": "66"
    },
    {
        "id": "6611",
        "name_en": "Amphoe Dong Charoen",
        "name_th": "ดงเจริญ",
        "province_id": "66"
    },
    {
        "id": "6612",
        "name_en": "Amphoe Wachirabarami",
        "name_th": "วชิรบารมี",
        "province_id": "66"
    },
    {
        "id": "6701",
        "name_en": "Amphoe Mueang Phetchabun",
        "name_th": "เมืองเพชรบูรณ์",
        "province_id": "67"
    },
    {
        "id": "6702",
        "name_en": "Amphoe Chon Daen",
        "name_th": "ชนแดน",
        "province_id": "67"
    },
    {
        "id": "6703",
        "name_en": "Amphoe Lom Sak",
        "name_th": "หล่มสัก",
        "province_id": "67"
    },
    {
        "id": "6704",
        "name_en": "Amphoe Lom Kao",
        "name_th": "หล่มเก่า",
        "province_id": "67"
    },
    {
        "id": "6705",
        "name_en": "Amphoe Wichian Buri",
        "name_th": "วิเชียรบุรี",
        "province_id": "67"
    },
    {
        "id": "6706",
        "name_en": "Amphoe Si Thep",
        "name_th": "ศรีเทพ",
        "province_id": "67"
    },
    {
        "id": "6707",
        "name_en": "Amphoe Nong Phai",
        "name_th": "หนองไผ่",
        "province_id": "67"
    },
    {
        "id": "6708",
        "name_en": "Amphoe Bueng Sam Phan",
        "name_th": "บึงสามพัน",
        "province_id": "67"
    },
    {
        "id": "6709",
        "name_en": "Amphoe Nam Nao",
        "name_th": "น้ำหนาว",
        "province_id": "67"
    },
    {
        "id": "6710",
        "name_en": "Amphoe Wang Pong",
        "name_th": "วังโป่ง",
        "province_id": "67"
    },
    {
        "id": "6711",
        "name_en": "Amphoe Khao Kho",
        "name_th": "เขาค้อ",
        "province_id": "67"
    },
    {
        "id": "7001",
        "name_en": "Amphoe Mueang Ratchaburi",
        "name_th": "เมืองราชบุรี",
        "province_id": "70"
    },
    {
        "id": "7002",
        "name_en": "Amphoe Chom Bueng",
        "name_th": "จอมบึง",
        "province_id": "70"
    },
    {
        "id": "7003",
        "name_en": "Amphoe Suan Phueng",
        "name_th": "สวนผึ้ง",
        "province_id": "70"
    },
    {
        "id": "7004",
        "name_en": "Amphoe Damnoen Saduak",
        "name_th": "ดำเนินสะดวก",
        "province_id": "70"
    },
    {
        "id": "7005",
        "name_en": "Amphoe Ban Pong",
        "name_th": "บ้านโป่ง",
        "province_id": "70"
    },
    {
        "id": "7006",
        "name_en": "Amphoe Bang Phae",
        "name_th": "บางแพ",
        "province_id": "70"
    },
    {
        "id": "7007",
        "name_en": "Amphoe Photharam",
        "name_th": "โพธาราม",
        "province_id": "70"
    },
    {
        "id": "7008",
        "name_en": "Amphoe Pak Tho",
        "name_th": "ปากท่อ",
        "province_id": "70"
    },
    {
        "id": "7009",
        "name_en": "Amphoe Wat Phleng",
        "name_th": "วัดเพลง",
        "province_id": "70"
    },
    {
        "id": "7010",
        "name_en": "Amphoe Ban Kha",
        "name_th": "บ้านคา",
        "province_id": "70"
    },
    {
        "id": "7101",
        "name_en": "Amphoe Mueang Kanchanaburi",
        "name_th": "เมืองกาญจนบุรี",
        "province_id": "71"
    },
    {
        "id": "7102",
        "name_en": "Amphoe Sai Yok",
        "name_th": "ไทรโยค",
        "province_id": "71"
    },
    {
        "id": "7103",
        "name_en": "Amphoe Bo Phloi",
        "name_th": "บ่อพลอย",
        "province_id": "71"
    },
    {
        "id": "7104",
        "name_en": "Amphoe Si Sawat",
        "name_th": "ศรีสวัสดิ์",
        "province_id": "71"
    },
    {
        "id": "7105",
        "name_en": "Amphoe Tha Maka",
        "name_th": "ท่ามะกา",
        "province_id": "71"
    },
    {
        "id": "7106",
        "name_en": "Amphoe Tha Muang",
        "name_th": "ท่าม่วง",
        "province_id": "71"
    },
    {
        "id": "7107",
        "name_en": "Amphoe Thong Pha Phum",
        "name_th": "ทองผาภูมิ",
        "province_id": "71"
    },
    {
        "id": "7108",
        "name_en": "Amphoe Sangkhla Buri",
        "name_th": "สังขละบุรี",
        "province_id": "71"
    },
    {
        "id": "7109",
        "name_en": "Amphoe Phanom Thuan",
        "name_th": "พนมทวน",
        "province_id": "71"
    },
    {
        "id": "7110",
        "name_en": "Amphoe Lao Khwan",
        "name_th": "เลาขวัญ",
        "province_id": "71"
    },
    {
        "id": "7111",
        "name_en": "Amphoe Dan Makham Tia",
        "name_th": "ด่านมะขามเตี้ย",
        "province_id": "71"
    },
    {
        "id": "7112",
        "name_en": "Amphoe Nong Prue",
        "name_th": "หนองปรือ",
        "province_id": "71"
    },
    {
        "id": "7113",
        "name_en": "Amphoe Huai Krachao",
        "name_th": "ห้วยกระเจา",
        "province_id": "71"
    },
    {
        "id": "7201",
        "name_en": "Amphoe Mueang Suphan Buri",
        "name_th": "เมืองสุพรรณบุรี",
        "province_id": "72"
    },
    {
        "id": "7202",
        "name_en": "Amphoe Doem Bang Nang Buat",
        "name_th": "เดิมบางนางบวช",
        "province_id": "72"
    },
    {
        "id": "7203",
        "name_en": "Amphoe Dan Chang",
        "name_th": "ด่านช้าง",
        "province_id": "72"
    },
    {
        "id": "7204",
        "name_en": "Amphoe Bang Pla Ma",
        "name_th": "บางปลาม้า",
        "province_id": "72"
    },
    {
        "id": "7205",
        "name_en": "Amphoe Si Prachan",
        "name_th": "ศรีประจันต์",
        "province_id": "72"
    },
    {
        "id": "7206",
        "name_en": "Amphoe Don Chedi",
        "name_th": "ดอนเจดีย์",
        "province_id": "72"
    },
    {
        "id": "7207",
        "name_en": "Amphoe Song Phi Nong",
        "name_th": "สองพี่น้อง",
        "province_id": "72"
    },
    {
        "id": "7208",
        "name_en": "Amphoe Sam Chuk",
        "name_th": "สามชุก",
        "province_id": "72"
    },
    {
        "id": "7209",
        "name_en": "Amphoe U Thong",
        "name_th": "อู่ทอง",
        "province_id": "72"
    },
    {
        "id": "7210",
        "name_en": "Amphoe Nong Ya Sai",
        "name_th": "หนองหญ้าไซ",
        "province_id": "72"
    },
    {
        "id": "7301",
        "name_en": "Amphoe Mueang Nakhon Pathom",
        "name_th": "เมืองนครปฐม",
        "province_id": "73"
    },
    {
        "id": "7302",
        "name_en": "Amphoe Kamphaeng Saen",
        "name_th": "กำแพงแสน",
        "province_id": "73"
    },
    {
        "id": "7303",
        "name_en": "Amphoe Nakhon Chai Si",
        "name_th": "นครชัยศรี",
        "province_id": "73"
    },
    {
        "id": "7304",
        "name_en": "Amphoe Don Tum",
        "name_th": "ดอนตูม",
        "province_id": "73"
    },
    {
        "id": "7305",
        "name_en": "Amphoe Bang Len",
        "name_th": "บางเลน",
        "province_id": "73"
    },
    {
        "id": "7306",
        "name_en": "Amphoe Sam Phran",
        "name_th": "สามพราน",
        "province_id": "73"
    },
    {
        "id": "7307",
        "name_en": "Amphoe Phutthamonthon",
        "name_th": "พุทธมณฑล",
        "province_id": "73"
    },
    {
        "id": "7401",
        "name_en": "Amphoe Mueang Samut Sakhon",
        "name_th": "เมืองสมุทรสาคร",
        "province_id": "74"
    },
    {
        "id": "7402",
        "name_en": "Amphoe Krathum Baen",
        "name_th": "กระทุ่มแบน",
        "province_id": "74"
    },
    {
        "id": "7403",
        "name_en": "Amphoe Ban Phaeo",
        "name_th": "บ้านแพ้ว",
        "province_id": "74"
    },
    {
        "id": "7501",
        "name_en": "Amphoe Mueang Samut Songkhram",
        "name_th": "เมืองสมุทรสงคราม",
        "province_id": "75"
    },
    {
        "id": "7502",
        "name_en": "Amphoe Bang Khonthi",
        "name_th": "บางคนที",
        "province_id": "75"
    },
    {
        "id": "7503",
        "name_en": "Amphoe Amphawa",
        "name_th": "อัมพวา",
        "province_id": "75"
    },
    {
        "id": "7601",
        "name_en": "Amphoe Mueang Phetchaburi",
        "name_th": "เมืองเพชรบุรี",
        "province_id": "76"
    },
    {
        "id": "7602",
        "name_en": "Amphoe Khao Yoi",
        "name_th": "เขาย้อย",
        "province_id": "76"
    },
    {
        "id": "7603",
        "name_en": "Amphoe Nong Ya Plong",
        "name_th": "หนองหญ้าปล้อง",
        "province_id": "76"
    },
    {
        "id": "7604",
        "name_en": "Amphoe Cha-am",
        "name_th": "ชะอำ",
        "province_id": "76"
    },
    {
        "id": "7605",
        "name_en": "Amphoe Tha Yang",
        "name_th": "ท่ายาง",
        "province_id": "76"
    },
    {
        "id": "7606",
        "name_en": "Amphoe Ban Lat",
        "name_th": "บ้านลาด",
        "province_id": "76"
    },
    {
        "id": "7607",
        "name_en": "Amphoe Ban Laem",
        "name_th": "บ้านแหลม",
        "province_id": "76"
    },
    {
        "id": "7608",
        "name_en": "Amphoe Kaeng Krachan",
        "name_th": "แก่งกระจาน",
        "province_id": "76"
    },
    {
        "id": "7701",
        "name_en": "Amphoe Mueang Prachuap Khiri Khan",
        "name_th": "เมืองประจวบคีรีขันธ์",
        "province_id": "77"
    },
    {
        "id": "7702",
        "name_en": "Amphoe Kui Buri",
        "name_th": "กุยบุรี",
        "province_id": "77"
    },
    {
        "id": "7703",
        "name_en": "Amphoe Thap Sakae",
        "name_th": "ทับสะแก",
        "province_id": "77"
    },
    {
        "id": "7704",
        "name_en": "Amphoe Bang Saphan",
        "name_th": "บางสะพาน",
        "province_id": "77"
    },
    {
        "id": "7705",
        "name_en": "Amphoe Bang Saphan Noi",
        "name_th": "บางสะพานน้อย",
        "province_id": "77"
    },
    {
        "id": "7706",
        "name_en": "Amphoe Pran Buri",
        "name_th": "ปราณบุรี",
        "province_id": "77"
    },
    {
        "id": "7707",
        "name_en": "Amphoe Hua Hin",
        "name_th": "หัวหิน",
        "province_id": "77"
    },
    {
        "id": "7708",
        "name_en": "Amphoe Sam Roi Yot",
        "name_th": "สามร้อยยอด",
        "province_id": "77"
    },
    {
        "id": "8001",
        "name_en": "Amphoe Mueang Nakhon Si Thammarat",
        "name_th": "เมืองนครศรีธรรมราช",
        "province_id": "80"
    },
    {
        "id": "8002",
        "name_en": "Amphoe Phrom Khiri",
        "name_th": "พรหมคีรี",
        "province_id": "80"
    },
    {
        "id": "8003",
        "name_en": "Amphoe Lan Saka",
        "name_th": "ลานสกา",
        "province_id": "80"
    },
    {
        "id": "8004",
        "name_en": "Amphoe Chawang",
        "name_th": "ฉวาง",
        "province_id": "80"
    },
    {
        "id": "8005",
        "name_en": "Amphoe Phipun",
        "name_th": "พิปูน",
        "province_id": "80"
    },
    {
        "id": "8006",
        "name_en": "Amphoe Chian Yai",
        "name_th": "เชียรใหญ่",
        "province_id": "80"
    },
    {
        "id": "8007",
        "name_en": "Amphoe Cha-uat",
        "name_th": "ชะอวด",
        "province_id": "80"
    },
    {
        "id": "8008",
        "name_en": "Amphoe Tha Sala",
        "name_th": "ท่าศาลา",
        "province_id": "80"
    },
    {
        "id": "8009",
        "name_en": "Amphoe Thung Song",
        "name_th": "ทุ่งสง",
        "province_id": "80"
    },
    {
        "id": "8010",
        "name_en": "Amphoe Na Bon",
        "name_th": "นาบอน",
        "province_id": "80"
    },
    {
        "id": "8011",
        "name_en": "Amphoe Thung Yai",
        "name_th": "ทุ่งใหญ่",
        "province_id": "80"
    },
    {
        "id": "8012",
        "name_en": "Amphoe Pak Phanang",
        "name_th": "ปากพนัง",
        "province_id": "80"
    },
    {
        "id": "8013",
        "name_en": "Amphoe Ron Phibun",
        "name_th": "ร่อนพิบูลย์",
        "province_id": "80"
    },
    {
        "id": "8014",
        "name_en": "Amphoe Sichon",
        "name_th": "สิชล",
        "province_id": "80"
    },
    {
        "id": "8015",
        "name_en": "Amphoe Khanom",
        "name_th": "ขนอม",
        "province_id": "80"
    },
    {
        "id": "8016",
        "name_en": "Amphoe Hua Sai",
        "name_th": "หัวไทร",
        "province_id": "80"
    },
    {
        "id": "8017",
        "name_en": "Amphoe Bang Khan",
        "name_th": "บางขัน",
        "province_id": "80"
    },
    {
        "id": "8018",
        "name_en": "Amphoe Tham Phannara",
        "name_th": "ถ้ำพรรณรา",
        "province_id": "80"
    },
    {
        "id": "8019",
        "name_en": "Amphoe Chulabhorn",
        "name_th": "จุฬาภรณ์",
        "province_id": "80"
    },
    {
        "id": "8020",
        "name_en": "Amphoe Phra Phrom",
        "name_th": "พระพรหม",
        "province_id": "80"
    },
    {
        "id": "8021",
        "name_en": "Amphoe Nopphitam",
        "name_th": "นบพิตำ",
        "province_id": "80"
    },
    {
        "id": "8022",
        "name_en": "Amphoe Chang Klang",
        "name_th": "ช้างกลาง",
        "province_id": "80"
    },
    {
        "id": "8023",
        "name_en": "Amphoe Chaloem Phra Kiat",
        "name_th": "เฉลิมพระเกียรติ",
        "province_id": "80"
    },
    {
        "id": "8101",
        "name_en": "Amphoe Mueang Krabi",
        "name_th": "เมืองกระบี่",
        "province_id": "81"
    },
    {
        "id": "8102",
        "name_en": "Amphoe Khao Phanom",
        "name_th": "เขาพนม",
        "province_id": "81"
    },
    {
        "id": "8103",
        "name_en": "Amphoe Ko Lanta",
        "name_th": "เกาะลันตา",
        "province_id": "81"
    },
    {
        "id": "8104",
        "name_en": "Amphoe Khlong Thom",
        "name_th": "คลองท่อม",
        "province_id": "81"
    },
    {
        "id": "8105",
        "name_en": "Amphoe Ao Luek",
        "name_th": "อ่าวลึก",
        "province_id": "81"
    },
    {
        "id": "8106",
        "name_en": "Amphoe Plai Phraya",
        "name_th": "ปลายพระยา",
        "province_id": "81"
    },
    {
        "id": "8107",
        "name_en": "Amphoe Lam Thap",
        "name_th": "ลำทับ",
        "province_id": "81"
    },
    {
        "id": "8108",
        "name_en": "Amphoe Nuea Khlong",
        "name_th": "เหนือคลอง",
        "province_id": "81"
    },
    {
        "id": "8201",
        "name_en": "Amphoe Mueang Phang-nga",
        "name_th": "เมืองพังงา",
        "province_id": "82"
    },
    {
        "id": "8202",
        "name_en": "Amphoe Ko Yao",
        "name_th": "เกาะยาว",
        "province_id": "82"
    },
    {
        "id": "8203",
        "name_en": "Amphoe Kapong",
        "name_th": "กะปง",
        "province_id": "82"
    },
    {
        "id": "8204",
        "name_en": "Amphoe Takua Thung",
        "name_th": "ตะกั่วทุ่ง",
        "province_id": "82"
    },
    {
        "id": "8205",
        "name_en": "Amphoe Takua Pa",
        "name_th": "ตะกั่วป่า",
        "province_id": "82"
    },
    {
        "id": "8206",
        "name_en": "Amphoe Khura Buri",
        "name_th": "คุระบุรี",
        "province_id": "82"
    },
    {
        "id": "8207",
        "name_en": "Amphoe Thap Put",
        "name_th": "ทับปุด",
        "province_id": "82"
    },
    {
        "id": "8208",
        "name_en": "Amphoe Thai Mueang",
        "name_th": "ท้ายเหมือง",
        "province_id": "82"
    },
    {
        "id": "8301",
        "name_en": "Amphoe Mueang Phuket",
        "name_th": "เมืองภูเก็ต",
        "province_id": "83"
    },
    {
        "id": "8302",
        "name_en": "Amphoe Kathu",
        "name_th": "กะทู้",
        "province_id": "83"
    },
    {
        "id": "8303",
        "name_en": "Amphoe Thalang",
        "name_th": "ถลาง",
        "province_id": "83"
    },
    {
        "id": "8401",
        "name_en": "Amphoe Mueang Surat Thani",
        "name_th": "เมืองสุราษฎร์ธานี",
        "province_id": "84"
    },
    {
        "id": "8402",
        "name_en": "Amphoe Kanchanadit",
        "name_th": "กาญจนดิษฐ์",
        "province_id": "84"
    },
    {
        "id": "8403",
        "name_en": "Amphoe Don Sak",
        "name_th": "ดอนสัก",
        "province_id": "84"
    },
    {
        "id": "8404",
        "name_en": "Amphoe Ko Samui",
        "name_th": "เกาะสมุย",
        "province_id": "84"
    },
    {
        "id": "8405",
        "name_en": "Amphoe Ko Pha-ngan",
        "name_th": "เกาะพะงัน",
        "province_id": "84"
    },
    {
        "id": "8406",
        "name_en": "Amphoe Chaiya",
        "name_th": "ไชยา",
        "province_id": "84"
    },
    {
        "id": "8407",
        "name_en": "Amphoe Tha Chana",
        "name_th": "ท่าชนะ",
        "province_id": "84"
    },
    {
        "id": "8408",
        "name_en": "Amphoe Khiri Rat Nikhom",
        "name_th": "คีรีรัฐนิคม",
        "province_id": "84"
    },
    {
        "id": "8409",
        "name_en": "Amphoe Ban Ta Khun",
        "name_th": "บ้านตาขุน",
        "province_id": "84"
    },
    {
        "id": "8410",
        "name_en": "Amphoe Phanom",
        "name_th": "พนม",
        "province_id": "84"
    },
    {
        "id": "8411",
        "name_en": "Amphoe Tha Chang",
        "name_th": "ท่าฉาง",
        "province_id": "84"
    },
    {
        "id": "8412",
        "name_en": "Amphoe Ban Na San",
        "name_th": "บ้านนาสาร",
        "province_id": "84"
    },
    {
        "id": "8413",
        "name_en": "Amphoe Ban Na Doem",
        "name_th": "บ้านนาเดิม",
        "province_id": "84"
    },
    {
        "id": "8414",
        "name_en": "Amphoe Khian Sa",
        "name_th": "เคียนซา",
        "province_id": "84"
    },
    {
        "id": "8415",
        "name_en": "Amphoe Wiang Sa",
        "name_th": "เวียงสระ",
        "province_id": "84"
    },
    {
        "id": "8416",
        "name_en": "Amphoe Phrasaeng",
        "name_th": "พระแสง",
        "province_id": "84"
    },
    {
        "id": "8417",
        "name_en": "Amphoe Phunphin",
        "name_th": "พุนพิน",
        "province_id": "84"
    },
    {
        "id": "8418",
        "name_en": "Amphoe Chai Buri",
        "name_th": "ชัยบุรี",
        "province_id": "84"
    },
    {
        "id": "8419",
        "name_en": "Amphoe Vibhavadi",
        "name_th": "วิภาวดี",
        "province_id": "84"
    },
    {
        "id": "8501",
        "name_en": "Amphoe Mueang Ranong",
        "name_th": "เมืองระนอง",
        "province_id": "85"
    },
    {
        "id": "8502",
        "name_en": "Amphoe La-un",
        "name_th": "ละอุ่น",
        "province_id": "85"
    },
    {
        "id": "8503",
        "name_en": "Amphoe Kapoe",
        "name_th": "กะเปอร์",
        "province_id": "85"
    },
    {
        "id": "8504",
        "name_en": "Amphoe Kra Buri",
        "name_th": "กระบุรี",
        "province_id": "85"
    },
    {
        "id": "8505",
        "name_en": "Amphoe Suk Samran",
        "name_th": "สุขสำราญ",
        "province_id": "85"
    },
    {
        "id": "8601",
        "name_en": "Amphoe Mueang Chumphon",
        "name_th": "เมืองชุมพร",
        "province_id": "86"
    },
    {
        "id": "8602",
        "name_en": "Amphoe Tha Sae",
        "name_th": "ท่าแซะ",
        "province_id": "86"
    },
    {
        "id": "8603",
        "name_en": "Amphoe Pathio",
        "name_th": "ปะทิว",
        "province_id": "86"
    },
    {
        "id": "8604",
        "name_en": "Amphoe Lang Suan",
        "name_th": "หลังสวน",
        "province_id": "86"
    },
    {
        "id": "8605",
        "name_en": "Amphoe Lamae",
        "name_th": "ละแม",
        "province_id": "86"
    },
    {
        "id": "8606",
        "name_en": "Amphoe Phato",
        "name_th": "พะโต๊ะ",
        "province_id": "86"
    },
    {
        "id": "8607",
        "name_en": "Amphoe Sawi",
        "name_th": "สวี",
        "province_id": "86"
    },
    {
        "id": "8608",
        "name_en": "Amphoe Thung Tako",
        "name_th": "ทุ่งตะโก",
        "province_id": "86"
    },
    {
        "id": "9001",
        "name_en": "Amphoe Mueang Songkhla",
        "name_th": "เมืองสงขลา",
        "province_id": "90"
    },
    {
        "id": "9002",
        "name_en": "Amphoe Sathing Phra",
        "name_th": "สทิงพระ",
        "province_id": "90"
    },
    {
        "id": "9003",
        "name_en": "Amphoe Chana",
        "name_th": "จะนะ",
        "province_id": "90"
    },
    {
        "id": "9004",
        "name_en": "Amphoe Na Thawi",
        "name_th": "นาทวี",
        "province_id": "90"
    },
    {
        "id": "9005",
        "name_en": "Amphoe Thepha",
        "name_th": "เทพา",
        "province_id": "90"
    },
    {
        "id": "9006",
        "name_en": "Amphoe Saba Yoi",
        "name_th": "สะบ้าย้อย",
        "province_id": "90"
    },
    {
        "id": "9007",
        "name_en": "Amphoe Ranot",
        "name_th": "ระโนด",
        "province_id": "90"
    },
    {
        "id": "9008",
        "name_en": "Amphoe Krasae Sin",
        "name_th": "กระแสสินธุ์",
        "province_id": "90"
    },
    {
        "id": "9009",
        "name_en": "Amphoe Rattaphum",
        "name_th": "รัตภูมิ",
        "province_id": "90"
    },
    {
        "id": "9010",
        "name_en": "Amphoe Sadao",
        "name_th": "สะเดา",
        "province_id": "90"
    },
    {
        "id": "9011",
        "name_en": "Amphoe Hat Yai",
        "name_th": "หาดใหญ่",
        "province_id": "90"
    },
    {
        "id": "9012",
        "name_en": "Amphoe Na Mom",
        "name_th": "นาหม่อม",
        "province_id": "90"
    },
    {
        "id": "9013",
        "name_en": "Amphoe Khuan Niang",
        "name_th": "ควนเนียง",
        "province_id": "90"
    },
    {
        "id": "9014",
        "name_en": "Amphoe Bang Klam",
        "name_th": "บางกล่ำ",
        "province_id": "90"
    },
    {
        "id": "9015",
        "name_en": "Amphoe Singhanakhon",
        "name_th": "สิงหนคร",
        "province_id": "90"
    },
    {
        "id": "9016",
        "name_en": "Amphoe Khlong Hoi Khong",
        "name_th": "คลองหอยโข่ง",
        "province_id": "90"
    },
    {
        "id": "9101",
        "name_en": "Amphoe Mueang Satun",
        "name_th": "เมืองสตูล",
        "province_id": "91"
    },
    {
        "id": "9102",
        "name_en": "Amphoe Khuan Don",
        "name_th": "ควนโดน",
        "province_id": "91"
    },
    {
        "id": "9103",
        "name_en": "Amphoe Khuan Kalong",
        "name_th": "ควนกาหลง",
        "province_id": "91"
    },
    {
        "id": "9104",
        "name_en": "Amphoe Tha Phae",
        "name_th": "ท่าแพ",
        "province_id": "91"
    },
    {
        "id": "9105",
        "name_en": "Amphoe La-ngu",
        "name_th": "ละงู",
        "province_id": "91"
    },
    {
        "id": "9106",
        "name_en": "Amphoe Thung Wa",
        "name_th": "ทุ่งหว้า",
        "province_id": "91"
    },
    {
        "id": "9107",
        "name_en": "Amphoe Manang",
        "name_th": "มะนัง",
        "province_id": "91"
    },
    {
        "id": "9201",
        "name_en": "Amphoe Mueang Trang",
        "name_th": "เมืองตรัง",
        "province_id": "92"
    },
    {
        "id": "9202",
        "name_en": "Amphoe Kantang",
        "name_th": "กันตัง",
        "province_id": "92"
    },
    {
        "id": "9203",
        "name_en": "Amphoe Yan Ta Khao",
        "name_th": "ย่านตาขาว",
        "province_id": "92"
    },
    {
        "id": "9204",
        "name_en": "Amphoe Palian",
        "name_th": "ปะเหลียน",
        "province_id": "92"
    },
    {
        "id": "9205",
        "name_en": "Amphoe Sikao",
        "name_th": "สิเกา",
        "province_id": "92"
    },
    {
        "id": "9206",
        "name_en": "Amphoe Huai Yot",
        "name_th": "ห้วยยอด",
        "province_id": "92"
    },
    {
        "id": "9207",
        "name_en": "Amphoe Wang Wiset",
        "name_th": "วังวิเศษ",
        "province_id": "92"
    },
    {
        "id": "9208",
        "name_en": "Amphoe Na Yong",
        "name_th": "นาโยง",
        "province_id": "92"
    },
    {
        "id": "9209",
        "name_en": "Amphoe Ratsada",
        "name_th": "รัษฎา",
        "province_id": "92"
    },
    {
        "id": "9210",
        "name_en": "Amphoe Hat Samran",
        "name_th": "หาดสำราญ",
        "province_id": "92"
    },
    {
        "id": "9301",
        "name_en": "Amphoe Mueang Phatthalung",
        "name_th": "เมืองพัทลุง",
        "province_id": "93"
    },
    {
        "id": "9302",
        "name_en": "Amphoe Kong Ra",
        "name_th": "กงหรา",
        "province_id": "93"
    },
    {
        "id": "9303",
        "name_en": "Amphoe Khao Chaison",
        "name_th": "เขาชัยสน",
        "province_id": "93"
    },
    {
        "id": "9304",
        "name_en": "Amphoe Tamot",
        "name_th": "ตะโหมด",
        "province_id": "93"
    },
    {
        "id": "9305",
        "name_en": "Amphoe Khuan Khanun",
        "name_th": "ควนขนุน",
        "province_id": "93"
    },
    {
        "id": "9306",
        "name_en": "Amphoe Pak Phayun",
        "name_th": "ปากพะยูน",
        "province_id": "93"
    },
    {
        "id": "9307",
        "name_en": "Amphoe Si Banphot",
        "name_th": "ศรีบรรพต",
        "province_id": "93"
    },
    {
        "id": "9308",
        "name_en": "Amphoe Pa Bon",
        "name_th": "ป่าบอน",
        "province_id": "93"
    },
    {
        "id": "9309",
        "name_en": "Amphoe Bang Kaeo",
        "name_th": "บางแก้ว",
        "province_id": "93"
    },
    {
        "id": "9310",
        "name_en": "Amphoe Pa Phayom",
        "name_th": "ป่าพะยอม",
        "province_id": "93"
    },
    {
        "id": "9311",
        "name_en": "Amphoe Srinagarindra",
        "name_th": "ศรีนครินทร์",
        "province_id": "93"
    },
    {
        "id": "9401",
        "name_en": "Amphoe Mueang Pattani",
        "name_th": "เมืองปัตตานี",
        "province_id": "94"
    },
    {
        "id": "9402",
        "name_en": "Amphoe Khok Pho",
        "name_th": "โคกโพธิ์",
        "province_id": "94"
    },
    {
        "id": "9403",
        "name_en": "Amphoe Nong Chik",
        "name_th": "หนองจิก",
        "province_id": "94"
    },
    {
        "id": "9404",
        "name_en": "Amphoe Panare",
        "name_th": "ปะนาเระ",
        "province_id": "94"
    },
    {
        "id": "9405",
        "name_en": "Amphoe Mayo",
        "name_th": "มายอ",
        "province_id": "94"
    },
    {
        "id": "9406",
        "name_en": "Amphoe Thung Yang Daeng",
        "name_th": "ทุ่งยางแดง",
        "province_id": "94"
    },
    {
        "id": "9407",
        "name_en": "Amphoe Sai Buri",
        "name_th": "สายบุรี",
        "province_id": "94"
    },
    {
        "id": "9408",
        "name_en": "Amphoe Mai Kaen",
        "name_th": "ไม้แก่น",
        "province_id": "94"
    },
    {
        "id": "9409",
        "name_en": "Amphoe Yaring",
        "name_th": "ยะหริ่ง",
        "province_id": "94"
    },
    {
        "id": "9410",
        "name_en": "Amphoe Yarang",
        "name_th": "ยะรัง",
        "province_id": "94"
    },
    {
        "id": "9411",
        "name_en": "Amphoe Kapho",
        "name_th": "กะพ้อ",
        "province_id": "94"
    },
    {
        "id": "9412",
        "name_en": "Amphoe Mae Lan",
        "name_th": "แม่ลาน",
        "province_id": "94"
    },
    {
        "id": "9501",
        "name_en": "Amphoe Mueang Yala",
        "name_th": "เมืองยะลา",
        "province_id": "95"
    },
    {
        "id": "9502",
        "name_en": "Amphoe Betong",
        "name_th": "เบตง",
        "province_id": "95"
    },
    {
        "id": "9503",
        "name_en": "Amphoe Bannang Sata",
        "name_th": "บันนังสตา",
        "province_id": "95"
    },
    {
        "id": "9504",
        "name_en": "Amphoe Than To",
        "name_th": "ธารโต",
        "province_id": "95"
    },
    {
        "id": "9505",
        "name_en": "Amphoe Yaha",
        "name_th": "ยะหา",
        "province_id": "95"
    },
    {
        "id": "9506",
        "name_en": "Amphoe Raman",
        "name_th": "รามัน",
        "province_id": "95"
    },
    {
        "id": "9507",
        "name_en": "Amphoe Kabang",
        "name_th": "กาบัง",
        "province_id": "95"
    },
    {
        "id": "9508",
        "name_en": "Amphoe Krong Pinang",
        "name_th": "กรงปินัง",
        "province_id": "95"
    },
    {
        "id": "9601",
        "name_en": "Amphoe Mueang Narathiwat",
        "name_th": "เมืองนราธิวาส",
        "province_id": "96"
    },
    {
        "id": "9602",
        "name_en": "Amphoe Tak Bai",
        "name_th": "ตากใบ",
        "province_id": "96"
    },
    {
        "id": "9603",
        "name_en": "Amphoe Bacho",
        "name_th": "บาเจาะ",
        "province_id": "96"
    },
    {
        "id": "9604",
        "name_en": "Amphoe Yi-ngo",
        "name_th": "ยี่งอ",
        "province_id": "96"
    },
    {
        "id": "9605",
        "name_en": "Amphoe Ra-ngae",
        "name_th": "ระแงะ",
        "province_id": "96"
    },
    {
        "id": "9606",
        "name_en": "Amphoe Rueso",
        "name_th": "รือเสาะ",
        "province_id": "96"
    },
    {
        "id": "9607",
        "name_en": "Amphoe Si Sakhon",
        "name_th": "ศรีสาคร",
        "province_id": "96"
    },
    {
        "id": "9608",
        "name_en": "Amphoe Waeng",
        "name_th": "แว้ง",
        "province_id": "96"
    },
    {
        "id": "9609",
        "name_en": "Amphoe Sukhirin",
        "name_th": "สุคิริน",
        "province_id": "96"
    },
    {
        "id": "9610",
        "name_en": "Amphoe Su-ngai Kolok",
        "name_th": "สุไหงโก-ลก",
        "province_id": "96"
    },
    {
        "id": "9611",
        "name_en": "Amphoe Su-ngai Padi",
        "name_th": "สุไหงปาดี",
        "province_id": "96"
    },
    {
        "id": "9612",
        "name_en": "Amphoe Chanae",
        "name_th": "จะแนะ",
        "province_id": "96"
    },
    {
        "id": "9613",
        "name_en": "Amphoe Cho-airong",
        "name_th": "เจาะไอร้อง",
        "province_id": "96"
    },
    {
        "id": "9613",
        "name_en": "Amphoe Cho-airong",
        "name_th": "เจาะไอร้อง",
        "province_id": "96"
    }
]